<?xml version="1.0" encoding="UTF-8"?><gpx creator="Wikiloc - https://www.wikiloc.com" version="1.1" xmlns="http://www.topografix.com/GPX/1/1" xmlns:xsi="http://www.w3.org/2001/XMLSchema-instance" xsi:schemaLocation="http://www.topografix.com/GPX/1/1 http://www.topografix.com/GPX/1/1/gpx.xsd"><metadata><name>Wikiloc - O Pedrouzo - Santiago de Compostela / Etapa 5 del Camino de Santiago desde Sarria (Francés)</name><author><name>Lz1975</name><link href="https://www.wikiloc.com/wikiloc/user.do?id=1311791"><text>Lz1975 on Wikiloc</text></link></author><link href="https://www.wikiloc.com/hiking-trails/o-pedrouzo-santiago-de-compostela-etapa-5-del-camino-de-santiago-desde-sarria-frances-87633420"><text>O Pedrouzo - Santiago de Compostela / Etapa 5 del Camino de Santiago desde Sarria (Francés) on Wikiloc</text></link><time>2021-10-09T11:57:54Z</time></metadata><trk><name>O Pedrouzo - Santiago de Compostela / Etapa 5 del Camino de ...</name><cmt></cmt><desc></desc><trkseg><trkpt lat="42.904596" lon="-8.362398"><ele>284.412</ele><time>2021-10-09T07:00:00Z</time></trkpt><trkpt lat="42.904926" lon="-8.362854"><ele>288.532</ele><time>2021-10-09T07:00:43Z</time></trkpt><trkpt lat="42.905671" lon="-8.363307"><ele>290.805</ele><time>2021-10-09T07:01:58Z</time></trkpt><trkpt lat="42.907158" lon="-8.364026"><ele>290.808</ele><time>2021-10-09T07:04:27Z</time></trkpt><trkpt lat="42.907340" lon="-8.364183"><ele>289.639</ele><time>2021-10-09T07:04:46Z</time></trkpt><trkpt lat="42.907830" lon="-8.364907"><ele>290.038</ele><time>2021-10-09T07:05:54Z</time></trkpt><trkpt lat="42.908030" lon="-8.365204"><ele>292.197</ele><time>2021-10-09T07:06:23Z</time></trkpt><trkpt lat="42.908292" lon="-8.365526"><ele>296.444</ele><time>2021-10-09T07:06:58Z</time></trkpt><trkpt lat="42.908326" lon="-8.365643"><ele>297.684</ele><time>2021-10-09T07:07:09Z</time></trkpt><trkpt lat="42.908197" lon="-8.365996"><ele>299.735</ele><time>2021-10-09T07:07:36Z</time></trkpt><trkpt lat="42.908106" lon="-8.366237"><ele>299.983</ele><time>2021-10-09T07:07:55Z</time></trkpt><trkpt lat="42.908051" lon="-8.366572"><ele>299.361</ele><time>2021-10-09T07:08:19Z</time></trkpt><trkpt lat="42.907892" lon="-8.366856"><ele>297.272</ele><time>2021-10-09T07:08:43Z</time></trkpt><trkpt lat="42.907646" lon="-8.367414"><ele>298.913</ele><time>2021-10-09T07:09:27Z</time></trkpt><trkpt lat="42.907564" lon="-8.367591"><ele>299.614</ele><time>2021-10-09T07:09:41Z</time></trkpt><trkpt lat="42.907484" lon="-8.367864"><ele>299.708</ele><time>2021-10-09T07:10:01Z</time></trkpt><trkpt lat="42.907366" lon="-8.368122"><ele>298.425</ele><time>2021-10-09T07:10:21Z</time></trkpt><trkpt lat="42.907335" lon="-8.368363"><ele>297.894</ele><time>2021-10-09T07:10:37Z</time></trkpt><trkpt lat="42.907313" lon="-8.368506"><ele>297.443</ele><time>2021-10-09T07:10:46Z</time></trkpt><trkpt lat="42.907286" lon="-8.368632"><ele>297.150</ele><time>2021-10-09T07:10:55Z</time></trkpt><trkpt lat="42.907162" lon="-8.368876"><ele>294.740</ele><time>2021-10-09T07:11:15Z</time></trkpt><trkpt lat="42.907038" lon="-8.369198"><ele>290.991</ele><time>2021-10-09T07:12:18Z</time></trkpt><trkpt lat="42.906934" lon="-8.369471"><ele>289.079</ele><time>2021-10-09T07:13:48Z</time></trkpt><trkpt lat="42.906820" lon="-8.369763"><ele>288.147</ele><time>2021-10-09T07:14:11Z</time></trkpt><trkpt lat="42.906775" lon="-8.369855"><ele>287.479</ele><time>2021-10-09T07:14:30Z</time></trkpt><trkpt lat="42.906730" lon="-8.369946"><ele>286.705</ele><time>2021-10-09T07:15:02Z</time></trkpt><trkpt lat="42.906685" lon="-8.370026"><ele>286.125</ele><time>2021-10-09T07:15:09Z</time></trkpt><trkpt lat="42.906653" lon="-8.370131"><ele>285.308</ele><time>2021-10-09T07:15:29Z</time></trkpt><trkpt lat="42.906647" lon="-8.370198"><ele>284.975</ele><time>2021-10-09T07:15:33Z</time></trkpt><trkpt lat="42.906494" lon="-8.370329"><ele>281.524</ele><time>2021-10-09T07:16:46Z</time></trkpt><trkpt lat="42.906279" lon="-8.370470"><ele>276.623</ele><time>2021-10-09T07:17:10Z</time></trkpt><trkpt lat="42.906239" lon="-8.370552"><ele>275.350</ele><time>2021-10-09T07:17:16Z</time></trkpt><trkpt lat="42.906353" lon="-8.370753"><ele>275.130</ele><time>2021-10-09T07:17:33Z</time></trkpt><trkpt lat="42.906449" lon="-8.370930"><ele>274.591</ele><time>2021-10-09T07:17:48Z</time></trkpt><trkpt lat="42.906467" lon="-8.371024"><ele>273.449</ele><time>2021-10-09T07:18:05Z</time></trkpt><trkpt lat="42.906435" lon="-8.371070"><ele>271.997</ele><time>2021-10-09T07:18:24Z</time></trkpt><trkpt lat="42.906246" lon="-8.371306"><ele>267.856</ele><time>2021-10-09T07:18:49Z</time></trkpt><trkpt lat="42.906020" lon="-8.371602"><ele>266.559</ele><time>2021-10-09T07:19:17Z</time></trkpt><trkpt lat="42.905773" lon="-8.371818"><ele>266.614</ele><time>2021-10-09T07:19:44Z</time></trkpt><trkpt lat="42.905757" lon="-8.371933"><ele>267.008</ele><time>2021-10-09T07:20:04Z</time></trkpt><trkpt lat="42.905777" lon="-8.371993"><ele>267.023</ele><time>2021-10-09T07:20:23Z</time></trkpt><trkpt lat="42.905995" lon="-8.372277"><ele>267.042</ele><time>2021-10-09T07:20:53Z</time></trkpt><trkpt lat="42.906135" lon="-8.372459"><ele>266.131</ele><time>2021-10-09T07:21:12Z</time></trkpt><trkpt lat="42.905999" lon="-8.373148"><ele>271.238</ele><time>2021-10-09T07:22:05Z</time></trkpt><trkpt lat="42.905893" lon="-8.373511"><ele>278.388</ele><time>2021-10-09T07:22:35Z</time></trkpt><trkpt lat="42.905771" lon="-8.373889"><ele>282.019</ele><time>2021-10-09T07:23:04Z</time></trkpt><trkpt lat="42.905639" lon="-8.374272"><ele>282.787</ele><time>2021-10-09T07:23:35Z</time></trkpt><trkpt lat="42.905402" lon="-8.374634"><ele>283.915</ele><time>2021-10-09T07:24:13Z</time></trkpt><trkpt lat="42.905237" lon="-8.374801"><ele>284.082</ele><time>2021-10-09T07:24:36Z</time></trkpt><trkpt lat="42.905038" lon="-8.375005"><ele>284.043</ele><time>2021-10-09T07:25:01Z</time></trkpt><trkpt lat="42.904954" lon="-8.375093"><ele>283.717</ele><time>2021-10-09T07:25:11Z</time></trkpt><trkpt lat="42.904852" lon="-8.375198"><ele>282.908</ele><time>2021-10-09T07:25:24Z</time></trkpt><trkpt lat="42.904775" lon="-8.375278"><ele>282.486</ele><time>2021-10-09T07:25:33Z</time></trkpt><trkpt lat="42.904510" lon="-8.375538"><ele>282.025</ele><time>2021-10-09T07:26:04Z</time></trkpt><trkpt lat="42.904381" lon="-8.375683"><ele>281.424</ele><time>2021-10-09T07:26:22Z</time></trkpt><trkpt lat="42.904233" lon="-8.375839"><ele>281.031</ele><time>2021-10-09T07:26:40Z</time></trkpt><trkpt lat="42.904115" lon="-8.376123"><ele>280.011</ele><time>2021-10-09T07:27:04Z</time></trkpt><trkpt lat="42.904018" lon="-8.376339"><ele>280.012</ele><time>2021-10-09T07:27:24Z</time></trkpt><trkpt lat="42.903942" lon="-8.376692"><ele>282.020</ele><time>2021-10-09T07:27:50Z</time></trkpt><trkpt lat="42.903846" lon="-8.377113"><ele>285.198</ele><time>2021-10-09T07:28:23Z</time></trkpt><trkpt lat="42.903795" lon="-8.377378"><ele>286.849</ele><time>2021-10-09T07:28:43Z</time></trkpt><trkpt lat="42.903740" lon="-8.377706"><ele>289.302</ele><time>2021-10-09T07:29:09Z</time></trkpt><trkpt lat="42.903691" lon="-8.378059"><ele>292.322</ele><time>2021-10-09T07:29:39Z</time></trkpt><trkpt lat="42.903672" lon="-8.378315"><ele>293.208</ele><time>2021-10-09T07:29:59Z</time></trkpt><trkpt lat="42.903621" lon="-8.378697"><ele>294.452</ele><time>2021-10-09T07:30:26Z</time></trkpt><trkpt lat="42.903581" lon="-8.378991"><ele>294.571</ele><time>2021-10-09T07:30:47Z</time></trkpt><trkpt lat="42.903589" lon="-8.379398"><ele>294.650</ele><time>2021-10-09T07:31:18Z</time></trkpt><trkpt lat="42.903598" lon="-8.379476"><ele>294.937</ele><time>2021-10-09T07:31:24Z</time></trkpt><trkpt lat="42.903588" lon="-8.379755"><ele>295.727</ele><time>2021-10-09T07:31:44Z</time></trkpt><trkpt lat="42.903645" lon="-8.380074"><ele>295.878</ele><time>2021-10-09T07:32:09Z</time></trkpt><trkpt lat="42.903735" lon="-8.380792"><ele>293.096</ele><time>2021-10-09T07:33:01Z</time></trkpt><trkpt lat="42.903755" lon="-8.381246"><ele>290.124</ele><time>2021-10-09T07:33:31Z</time></trkpt><trkpt lat="42.903724" lon="-8.381418"><ele>288.396</ele><time>2021-10-09T07:34:01Z</time></trkpt><trkpt lat="42.903696" lon="-8.381552"><ele>286.531</ele><time>2021-10-09T07:34:42Z</time></trkpt><trkpt lat="42.903608" lon="-8.381576"><ele>284.924</ele><time>2021-10-09T07:35:03Z</time></trkpt><trkpt lat="42.903539" lon="-8.381624"><ele>283.408</ele><time>2021-10-09T07:35:34Z</time></trkpt><trkpt lat="42.903727" lon="-8.382343"><ele>280.487</ele><time>2021-10-09T07:36:30Z</time></trkpt><trkpt lat="42.903813" lon="-8.382647"><ele>281.296</ele><time>2021-10-09T07:36:53Z</time></trkpt><trkpt lat="42.903900" lon="-8.382944"><ele>284.315</ele><time>2021-10-09T07:37:15Z</time></trkpt><trkpt lat="42.904011" lon="-8.383303"><ele>285.982</ele><time>2021-10-09T07:37:41Z</time></trkpt><trkpt lat="42.904072" lon="-8.383521"><ele>286.592</ele><time>2021-10-09T07:37:58Z</time></trkpt><trkpt lat="42.904107" lon="-8.383636"><ele>287.123</ele><time>2021-10-09T07:38:08Z</time></trkpt><trkpt lat="42.904162" lon="-8.383840"><ele>287.131</ele><time>2021-10-09T07:38:24Z</time></trkpt><trkpt lat="42.904201" lon="-8.383998"><ele>287.799</ele><time>2021-10-09T07:38:37Z</time></trkpt><trkpt lat="42.904241" lon="-8.384127"><ele>288.764</ele><time>2021-10-09T07:38:47Z</time></trkpt><trkpt lat="42.904333" lon="-8.384476"><ele>293.406</ele><time>2021-10-09T07:39:15Z</time></trkpt><trkpt lat="42.904479" lon="-8.384870"><ele>296.116</ele><time>2021-10-09T07:39:51Z</time></trkpt><trkpt lat="42.904692" lon="-8.385326"><ele>296.408</ele><time>2021-10-09T07:40:34Z</time></trkpt><trkpt lat="42.904850" lon="-8.385937"><ele>298.794</ele><time>2021-10-09T07:41:18Z</time></trkpt><trkpt lat="42.904803" lon="-8.386224"><ele>296.033</ele><time>2021-10-09T07:41:37Z</time></trkpt><trkpt lat="42.904452" lon="-8.386538"><ele>284.622</ele><time>2021-10-09T07:42:21Z</time></trkpt><trkpt lat="42.904023" lon="-8.386720"><ele>277.669</ele><time>2021-10-09T07:43:04Z</time></trkpt><trkpt lat="42.903999" lon="-8.386739"><ele>277.279</ele><time>2021-10-09T07:43:07Z</time></trkpt><trkpt lat="42.903749" lon="-8.386826"><ele>273.870</ele><time>2021-10-09T07:43:33Z</time></trkpt><trkpt lat="42.903225" lon="-8.387115"><ele>269.848</ele><time>2021-10-09T07:44:24Z</time></trkpt><trkpt lat="42.903277" lon="-8.387351"><ele>269.116</ele><time>2021-10-09T07:44:40Z</time></trkpt><trkpt lat="42.903401" lon="-8.387801"><ele>268.732</ele><time>2021-10-09T07:45:12Z</time></trkpt><trkpt lat="42.903723" lon="-8.388948"><ele>265.792</ele><time>2021-10-09T07:46:32Z</time></trkpt><trkpt lat="42.903942" lon="-8.389325"><ele>263.311</ele><time>2021-10-09T07:47:04Z</time></trkpt><trkpt lat="42.904276" lon="-8.389711"><ele>261.108</ele><time>2021-10-09T07:47:46Z</time></trkpt><trkpt lat="42.904377" lon="-8.389978"><ele>260.161</ele><time>2021-10-09T07:48:05Z</time></trkpt><trkpt lat="42.904396" lon="-8.390417"><ele>255.790</ele><time>2021-10-09T07:48:33Z</time></trkpt><trkpt lat="42.904405" lon="-8.390813"><ele>253.019</ele><time>2021-10-09T07:48:59Z</time></trkpt><trkpt lat="42.904520" lon="-8.391092"><ele>251.496</ele><time>2021-10-09T07:49:24Z</time></trkpt><trkpt lat="42.904592" lon="-8.391229"><ele>251.156</ele><time>2021-10-09T07:49:53Z</time></trkpt><trkpt lat="42.904639" lon="-8.391190"><ele>251.347</ele><time>2021-10-09T07:50:15Z</time></trkpt><trkpt lat="42.904736" lon="-8.391119"><ele>251.955</ele><time>2021-10-09T07:50:41Z</time></trkpt><trkpt lat="42.904871" lon="-8.391176"><ele>251.733</ele><time>2021-10-09T07:51:38Z</time></trkpt><trkpt lat="42.905028" lon="-8.391318"><ele>251.462</ele><time>2021-10-09T07:51:54Z</time></trkpt><trkpt lat="42.905315" lon="-8.391594"><ele>250.783</ele><time>2021-10-09T07:52:27Z</time></trkpt><trkpt lat="42.905500" lon="-8.392125"><ele>248.611</ele><time>2021-10-09T07:54:09Z</time></trkpt><trkpt lat="42.905664" lon="-8.392567"><ele>245.908</ele><time>2021-10-09T07:56:34Z</time></trkpt><trkpt lat="42.905706" lon="-8.392726"><ele>245.674</ele><time>2021-10-09T07:56:45Z</time></trkpt><trkpt lat="42.905740" lon="-8.392839"><ele>245.733</ele><time>2021-10-09T07:56:54Z</time></trkpt><trkpt lat="42.905775" lon="-8.392884"><ele>245.972</ele><time>2021-10-09T07:56:59Z</time></trkpt><trkpt lat="42.905840" lon="-8.393170"><ele>246.459</ele><time>2021-10-09T07:57:19Z</time></trkpt><trkpt lat="42.905943" lon="-8.393364"><ele>247.599</ele><time>2021-10-09T07:57:37Z</time></trkpt><trkpt lat="42.905910" lon="-8.393537"><ele>248.020</ele><time>2021-10-09T07:57:51Z</time></trkpt><trkpt lat="42.905863" lon="-8.393662"><ele>248.318</ele><time>2021-10-09T07:58:00Z</time></trkpt><trkpt lat="42.905844" lon="-8.393898"><ele>249.186</ele><time>2021-10-09T07:58:17Z</time></trkpt><trkpt lat="42.905852" lon="-8.393974"><ele>250.068</ele><time>2021-10-09T07:58:23Z</time></trkpt><trkpt lat="42.905862" lon="-8.394020"><ele>250.542</ele><time>2021-10-09T07:58:26Z</time></trkpt><trkpt lat="42.905911" lon="-8.394083"><ele>251.226</ele><time>2021-10-09T07:58:42Z</time></trkpt><trkpt lat="42.905928" lon="-8.394185"><ele>252.208</ele><time>2021-10-09T07:59:13Z</time></trkpt><trkpt lat="42.905948" lon="-8.394268"><ele>252.854</ele><time>2021-10-09T07:59:28Z</time></trkpt><trkpt lat="42.905932" lon="-8.394439"><ele>254.223</ele><time>2021-10-09T08:00:18Z</time></trkpt><trkpt lat="42.905803" lon="-8.394912"><ele>259.142</ele><time>2021-10-09T08:00:57Z</time></trkpt><trkpt lat="42.905741" lon="-8.395212"><ele>261.129</ele><time>2021-10-09T08:01:20Z</time></trkpt><trkpt lat="42.905732" lon="-8.395294"><ele>261.779</ele><time>2021-10-09T08:01:26Z</time></trkpt><trkpt lat="42.905691" lon="-8.395508"><ele>261.990</ele><time>2021-10-09T08:01:43Z</time></trkpt><trkpt lat="42.905681" lon="-8.395674"><ele>262.458</ele><time>2021-10-09T08:01:56Z</time></trkpt><trkpt lat="42.905655" lon="-8.395856"><ele>263.166</ele><time>2021-10-09T08:02:11Z</time></trkpt><trkpt lat="42.905636" lon="-8.396108"><ele>264.427</ele><time>2021-10-09T08:02:54Z</time></trkpt><trkpt lat="42.905602" lon="-8.396350"><ele>266.268</ele><time>2021-10-09T08:04:06Z</time></trkpt><trkpt lat="42.905575" lon="-8.396677"><ele>267.914</ele><time>2021-10-09T08:04:33Z</time></trkpt><trkpt lat="42.905536" lon="-8.397047"><ele>270.508</ele><time>2021-10-09T08:05:05Z</time></trkpt><trkpt lat="42.905472" lon="-8.397755"><ele>277.040</ele><time>2021-10-09T08:06:39Z</time></trkpt><trkpt lat="42.905555" lon="-8.397935"><ele>282.139</ele><time>2021-10-09T08:07:16Z</time></trkpt><trkpt lat="42.905647" lon="-8.398026"><ele>284.418</ele><time>2021-10-09T08:08:02Z</time></trkpt><trkpt lat="42.905736" lon="-8.398069"><ele>285.155</ele><time>2021-10-09T08:08:12Z</time></trkpt><trkpt lat="42.905856" lon="-8.398213"><ele>287.925</ele><time>2021-10-09T08:08:35Z</time></trkpt><trkpt lat="42.906050" lon="-8.398549"><ele>288.766</ele><time>2021-10-09T08:09:21Z</time></trkpt><trkpt lat="42.906211" lon="-8.398968"><ele>293.394</ele><time>2021-10-09T08:10:04Z</time></trkpt><trkpt lat="42.906267" lon="-8.399138"><ele>294.982</ele><time>2021-10-09T08:10:18Z</time></trkpt><trkpt lat="42.906334" lon="-8.399417"><ele>296.978</ele><time>2021-10-09T08:10:42Z</time></trkpt><trkpt lat="42.906370" lon="-8.399460"><ele>297.233</ele><time>2021-10-09T08:10:51Z</time></trkpt><trkpt lat="42.906371" lon="-8.399670"><ele>298.726</ele><time>2021-10-09T08:11:09Z</time></trkpt><trkpt lat="42.906366" lon="-8.399804"><ele>299.608</ele><time>2021-10-09T08:11:32Z</time></trkpt><trkpt lat="42.906347" lon="-8.399957"><ele>300.615</ele><time>2021-10-09T08:12:17Z</time></trkpt><trkpt lat="42.906282" lon="-8.400212"><ele>300.974</ele><time>2021-10-09T08:12:40Z</time></trkpt><trkpt lat="42.906215" lon="-8.400515"><ele>301.023</ele><time>2021-10-09T08:13:05Z</time></trkpt><trkpt lat="42.906195" lon="-8.400738"><ele>300.830</ele><time>2021-10-09T08:13:44Z</time></trkpt><trkpt lat="42.906091" lon="-8.401011"><ele>300.950</ele><time>2021-10-09T08:15:14Z</time></trkpt><trkpt lat="42.906050" lon="-8.401357"><ele>300.811</ele><time>2021-10-09T08:15:39Z</time></trkpt><trkpt lat="42.906056" lon="-8.401813"><ele>303.889</ele><time>2021-10-09T08:16:15Z</time></trkpt><trkpt lat="42.906138" lon="-8.402065"><ele>305.627</ele><time>2021-10-09T08:17:03Z</time></trkpt><trkpt lat="42.906170" lon="-8.402173"><ele>306.036</ele><time>2021-10-09T08:17:11Z</time></trkpt><trkpt lat="42.906172" lon="-8.402328"><ele>307.517</ele><time>2021-10-09T08:17:57Z</time></trkpt><trkpt lat="42.905973" lon="-8.402663"><ele>310.618</ele><time>2021-10-09T08:18:29Z</time></trkpt><trkpt lat="42.905846" lon="-8.402835"><ele>311.008</ele><time>2021-10-09T08:18:54Z</time></trkpt><trkpt lat="42.905802" lon="-8.402941"><ele>310.821</ele><time>2021-10-09T08:19:08Z</time></trkpt><trkpt lat="42.905795" lon="-8.403302"><ele>311.960</ele><time>2021-10-09T08:20:10Z</time></trkpt><trkpt lat="42.905742" lon="-8.403672"><ele>315.579</ele><time>2021-10-09T08:22:01Z</time></trkpt><trkpt lat="42.905761" lon="-8.404096"><ele>317.786</ele><time>2021-10-09T08:22:38Z</time></trkpt><trkpt lat="42.905911" lon="-8.404466"><ele>316.626</ele><time>2021-10-09T08:23:20Z</time></trkpt><trkpt lat="42.905885" lon="-8.405271"><ele>318.757</ele><time>2021-10-09T08:24:27Z</time></trkpt><trkpt lat="42.905850" lon="-8.405865"><ele>325.415</ele><time>2021-10-09T08:25:21Z</time></trkpt><trkpt lat="42.905851" lon="-8.406268"><ele>329.713</ele><time>2021-10-09T08:25:57Z</time></trkpt><trkpt lat="42.905851" lon="-8.406588"><ele>331.714</ele><time>2021-10-09T08:26:27Z</time></trkpt><trkpt lat="42.905855" lon="-8.406733"><ele>332.454</ele><time>2021-10-09T08:26:43Z</time></trkpt><trkpt lat="42.905809" lon="-8.407070"><ele>335.309</ele><time>2021-10-09T08:27:12Z</time></trkpt><trkpt lat="42.905851" lon="-8.407368"><ele>337.308</ele><time>2021-10-09T08:27:41Z</time></trkpt><trkpt lat="42.905873" lon="-8.407655"><ele>338.189</ele><time>2021-10-09T08:28:09Z</time></trkpt><trkpt lat="42.905848" lon="-8.407985"><ele>340.368</ele><time>2021-10-09T08:28:41Z</time></trkpt><trkpt lat="42.905820" lon="-8.408103"><ele>341.147</ele><time>2021-10-09T08:29:02Z</time></trkpt><trkpt lat="42.905793" lon="-8.408202"><ele>341.444</ele><time>2021-10-09T08:29:33Z</time></trkpt><trkpt lat="42.905771" lon="-8.408288"><ele>341.774</ele><time>2021-10-09T08:29:41Z</time></trkpt><trkpt lat="42.905718" lon="-8.408629"><ele>342.965</ele><time>2021-10-09T08:30:06Z</time></trkpt><trkpt lat="42.905840" lon="-8.408902"><ele>343.083</ele><time>2021-10-09T08:30:34Z</time></trkpt><trkpt lat="42.905929" lon="-8.409069"><ele>343.071</ele><time>2021-10-09T08:30:50Z</time></trkpt><trkpt lat="42.905957" lon="-8.409098"><ele>342.981</ele><time>2021-10-09T08:30:54Z</time></trkpt><trkpt lat="42.905976" lon="-8.409370"><ele>343.761</ele><time>2021-10-09T08:31:16Z</time></trkpt><trkpt lat="42.906091" lon="-8.409537"><ele>343.517</ele><time>2021-10-09T08:31:35Z</time></trkpt><trkpt lat="42.906132" lon="-8.409750"><ele>344.008</ele><time>2021-10-09T08:31:54Z</time></trkpt><trkpt lat="42.906200" lon="-8.410181"><ele>347.826</ele><time>2021-10-09T08:32:33Z</time></trkpt><trkpt lat="42.906290" lon="-8.410214"><ele>348.685</ele><time>2021-10-09T08:32:55Z</time></trkpt><trkpt lat="42.906325" lon="-8.410326"><ele>350.334</ele><time>2021-10-09T08:33:30Z</time></trkpt><trkpt lat="42.906674" lon="-8.410685"><ele>353.061</ele><time>2021-10-09T08:34:22Z</time></trkpt><trkpt lat="42.906801" lon="-8.410702"><ele>352.381</ele><time>2021-10-09T08:34:52Z</time></trkpt><trkpt lat="42.906916" lon="-8.410764"><ele>351.982</ele><time>2021-10-09T08:35:42Z</time></trkpt><trkpt lat="42.907078" lon="-8.410836"><ele>351.520</ele><time>2021-10-09T08:36:00Z</time></trkpt><trkpt lat="42.907333" lon="-8.411131"><ele>354.088</ele><time>2021-10-09T08:36:34Z</time></trkpt><trkpt lat="42.907474" lon="-8.411362"><ele>357.436</ele><time>2021-10-09T08:37:00Z</time></trkpt><trkpt lat="42.907529" lon="-8.411660"><ele>361.517</ele><time>2021-10-09T08:37:24Z</time></trkpt><trkpt lat="42.907620" lon="-8.411979"><ele>364.718</ele><time>2021-10-09T08:37:51Z</time></trkpt><trkpt lat="42.907696" lon="-8.412231"><ele>366.308</ele><time>2021-10-09T08:38:17Z</time></trkpt><trkpt lat="42.907746" lon="-8.412553"><ele>368.071</ele><time>2021-10-09T08:38:45Z</time></trkpt><trkpt lat="42.907856" lon="-8.412939"><ele>371.730</ele><time>2021-10-09T08:39:21Z</time></trkpt><trkpt lat="42.907909" lon="-8.413170"><ele>372.349</ele><time>2021-10-09T08:39:42Z</time></trkpt><trkpt lat="42.907989" lon="-8.413489"><ele>371.466</ele><time>2021-10-09T08:40:40Z</time></trkpt><trkpt lat="42.908081" lon="-8.413819"><ele>371.286</ele><time>2021-10-09T08:42:24Z</time></trkpt><trkpt lat="42.908123" lon="-8.413993"><ele>371.847</ele><time>2021-10-09T08:42:55Z</time></trkpt><trkpt lat="42.908178" lon="-8.414165"><ele>372.415</ele><time>2021-10-09T08:43:50Z</time></trkpt><trkpt lat="42.908219" lon="-8.414339"><ele>372.833</ele><time>2021-10-09T08:44:03Z</time></trkpt><trkpt lat="42.908243" lon="-8.414430"><ele>373.085</ele><time>2021-10-09T08:44:09Z</time></trkpt><trkpt lat="42.908330" lon="-8.414763"><ele>373.989</ele><time>2021-10-09T08:44:35Z</time></trkpt><trkpt lat="42.908559" lon="-8.414858"><ele>373.517</ele><time>2021-10-09T08:44:57Z</time></trkpt><trkpt lat="42.909074" lon="-8.414766"><ele>371.708</ele><time>2021-10-09T08:45:46Z</time></trkpt><trkpt lat="42.909667" lon="-8.414613"><ele>370.426</ele><time>2021-10-09T08:46:46Z</time></trkpt><trkpt lat="42.909855" lon="-8.414556"><ele>370.825</ele><time>2021-10-09T08:47:04Z</time></trkpt><trkpt lat="42.910166" lon="-8.414519"><ele>370.714</ele><time>2021-10-09T08:47:34Z</time></trkpt><trkpt lat="42.911193" lon="-8.414406"><ele>377.571</ele><time>2021-10-09T08:49:10Z</time></trkpt><trkpt lat="42.911942" lon="-8.414237"><ele>371.371</ele><time>2021-10-09T08:50:23Z</time></trkpt><trkpt lat="42.912555" lon="-8.414138"><ele>368.722</ele><time>2021-10-09T08:51:20Z</time></trkpt><trkpt lat="42.912753" lon="-8.414133"><ele>367.340</ele><time>2021-10-09T08:51:39Z</time></trkpt><trkpt lat="42.912871" lon="-8.414133"><ele>366.478</ele><time>2021-10-09T08:51:50Z</time></trkpt><trkpt lat="42.912969" lon="-8.414111"><ele>365.753</ele><time>2021-10-09T08:51:59Z</time></trkpt><trkpt lat="42.913335" lon="-8.414098"><ele>364.004</ele><time>2021-10-09T08:52:35Z</time></trkpt><trkpt lat="42.913641" lon="-8.414076"><ele>363.714</ele><time>2021-10-09T08:53:04Z</time></trkpt><trkpt lat="42.913615" lon="-8.414259"><ele>364.008</ele><time>2021-10-09T08:53:16Z</time></trkpt><trkpt lat="42.913620" lon="-8.414970"><ele>364.073</ele><time>2021-10-09T08:54:04Z</time></trkpt><trkpt lat="42.913619" lon="-8.415205"><ele>362.442</ele><time>2021-10-09T08:54:25Z</time></trkpt><trkpt lat="42.913623" lon="-8.415734"><ele>359.291</ele><time>2021-10-09T08:55:00Z</time></trkpt><trkpt lat="42.913629" lon="-8.416026"><ele>358.188</ele><time>2021-10-09T08:55:19Z</time></trkpt><trkpt lat="42.913623" lon="-8.416505"><ele>355.678</ele><time>2021-10-09T08:55:50Z</time></trkpt><trkpt lat="42.913636" lon="-8.417330"><ele>351.529</ele><time>2021-10-09T08:56:45Z</time></trkpt><trkpt lat="42.913640" lon="-8.417553"><ele>350.767</ele><time>2021-10-09T08:56:59Z</time></trkpt><trkpt lat="42.913652" lon="-8.418043"><ele>349.015</ele><time>2021-10-09T08:57:31Z</time></trkpt><trkpt lat="42.913575" lon="-8.418495"><ele>348.498</ele><time>2021-10-09T08:58:02Z</time></trkpt><trkpt lat="42.913633" lon="-8.418804"><ele>346.515</ele><time>2021-10-09T08:58:23Z</time></trkpt><trkpt lat="42.913647" lon="-8.419221"><ele>344.826</ele><time>2021-10-09T08:58:50Z</time></trkpt><trkpt lat="42.913667" lon="-8.419408"><ele>344.308</ele><time>2021-10-09T08:59:03Z</time></trkpt><trkpt lat="42.913652" lon="-8.419817"><ele>343.717</ele><time>2021-10-09T08:59:30Z</time></trkpt><trkpt lat="42.913625" lon="-8.419969"><ele>343.136</ele><time>2021-10-09T08:59:57Z</time></trkpt><trkpt lat="42.913555" lon="-8.420045"><ele>343.285</ele><time>2021-10-09T09:00:33Z</time></trkpt><trkpt lat="42.913456" lon="-8.420267"><ele>343.212</ele><time>2021-10-09T09:00:50Z</time></trkpt><trkpt lat="42.913452" lon="-8.420342"><ele>342.812</ele><time>2021-10-09T09:00:55Z</time></trkpt><trkpt lat="42.913436" lon="-8.420382"><ele>342.783</ele><time>2021-10-09T09:01:02Z</time></trkpt><trkpt lat="42.913446" lon="-8.420419"><ele>342.551</ele><time>2021-10-09T09:01:07Z</time></trkpt><trkpt lat="42.913450" lon="-8.420500"><ele>342.059</ele><time>2021-10-09T09:01:16Z</time></trkpt><trkpt lat="42.913452" lon="-8.420599"><ele>341.447</ele><time>2021-10-09T09:01:23Z</time></trkpt><trkpt lat="42.913456" lon="-8.420774"><ele>340.129</ele><time>2021-10-09T09:01:53Z</time></trkpt><trkpt lat="42.913462" lon="-8.420988"><ele>338.221</ele><time>2021-10-09T09:02:56Z</time></trkpt><trkpt lat="42.913464" lon="-8.421157"><ele>336.508</ele><time>2021-10-09T09:03:25Z</time></trkpt><trkpt lat="42.913462" lon="-8.421350"><ele>334.052</ele><time>2021-10-09T09:04:22Z</time></trkpt><trkpt lat="42.913454" lon="-8.421632"><ele>331.251</ele><time>2021-10-09T09:04:42Z</time></trkpt><trkpt lat="42.913452" lon="-8.421755"><ele>331.430</ele><time>2021-10-09T09:04:50Z</time></trkpt><trkpt lat="42.913450" lon="-8.421922"><ele>332.357</ele><time>2021-10-09T09:05:03Z</time></trkpt><trkpt lat="42.913435" lon="-8.422144"><ele>333.367</ele><time>2021-10-09T09:05:17Z</time></trkpt><trkpt lat="42.913374" lon="-8.422447"><ele>333.298</ele><time>2021-10-09T09:05:39Z</time></trkpt><trkpt lat="42.913289" lon="-8.422619"><ele>331.926</ele><time>2021-10-09T09:06:15Z</time></trkpt><trkpt lat="42.913195" lon="-8.422769"><ele>330.534</ele><time>2021-10-09T09:07:13Z</time></trkpt><trkpt lat="42.913118" lon="-8.422903"><ele>330.219</ele><time>2021-10-09T09:07:25Z</time></trkpt><trkpt lat="42.912995" lon="-8.423105"><ele>329.509</ele><time>2021-10-09T09:08:10Z</time></trkpt><trkpt lat="42.912869" lon="-8.423290"><ele>328.119</ele><time>2021-10-09T09:09:24Z</time></trkpt><trkpt lat="42.912651" lon="-8.423504"><ele>326.708</ele><time>2021-10-09T09:09:48Z</time></trkpt><trkpt lat="42.912486" lon="-8.423630"><ele>326.369</ele><time>2021-10-09T09:10:05Z</time></trkpt><trkpt lat="42.912398" lon="-8.423708"><ele>327.738</ele><time>2021-10-09T09:10:15Z</time></trkpt><trkpt lat="42.912242" lon="-8.423861"><ele>329.887</ele><time>2021-10-09T09:11:00Z</time></trkpt><trkpt lat="42.912056" lon="-8.424003"><ele>332.744</ele><time>2021-10-09T09:12:25Z</time></trkpt><trkpt lat="42.911912" lon="-8.424049"><ele>334.384</ele><time>2021-10-09T09:12:50Z</time></trkpt><trkpt lat="42.911578" lon="-8.424194"><ele>336.715</ele><time>2021-10-09T09:13:45Z</time></trkpt><trkpt lat="42.911354" lon="-8.424177"><ele>338.423</ele><time>2021-10-09T09:14:11Z</time></trkpt><trkpt lat="42.911166" lon="-8.424159"><ele>340.471</ele><time>2021-10-09T09:14:30Z</time></trkpt><trkpt lat="42.911042" lon="-8.424296"><ele>340.854</ele><time>2021-10-09T09:14:46Z</time></trkpt><trkpt lat="42.910985" lon="-8.424416"><ele>340.556</ele><time>2021-10-09T09:15:10Z</time></trkpt><trkpt lat="42.910899" lon="-8.424380"><ele>340.211</ele><time>2021-10-09T09:15:46Z</time></trkpt><trkpt lat="42.910757" lon="-8.424352"><ele>339.708</ele><time>2021-10-09T09:16:20Z</time></trkpt><trkpt lat="42.910642" lon="-8.424293"><ele>339.383</ele><time>2021-10-09T09:17:10Z</time></trkpt><trkpt lat="42.910313" lon="-8.424169"><ele>339.072</ele><time>2021-10-09T09:17:41Z</time></trkpt><trkpt lat="42.910020" lon="-8.424067"><ele>339.711</ele><time>2021-10-09T09:18:52Z</time></trkpt><trkpt lat="42.909755" lon="-8.423958"><ele>340.328</ele><time>2021-10-09T09:20:43Z</time></trkpt><trkpt lat="42.909543" lon="-8.423885"><ele>339.898</ele><time>2021-10-09T09:21:03Z</time></trkpt><trkpt lat="42.909303" lon="-8.423810"><ele>339.279</ele><time>2021-10-09T09:21:25Z</time></trkpt><trkpt lat="42.908998" lon="-8.423661"><ele>338.997</ele><time>2021-10-09T09:21:55Z</time></trkpt><trkpt lat="42.908930" lon="-8.423649"><ele>338.845</ele><time>2021-10-09T09:22:03Z</time></trkpt><trkpt lat="42.908777" lon="-8.423662"><ele>337.894</ele><time>2021-10-09T09:22:18Z</time></trkpt><trkpt lat="42.908714" lon="-8.423794"><ele>336.657</ele><time>2021-10-09T09:22:45Z</time></trkpt><trkpt lat="42.908732" lon="-8.423963"><ele>335.722</ele><time>2021-10-09T09:23:35Z</time></trkpt><trkpt lat="42.908757" lon="-8.424295"><ele>335.008</ele><time>2021-10-09T09:23:57Z</time></trkpt><trkpt lat="42.908806" lon="-8.424738"><ele>334.087</ele><time>2021-10-09T09:24:26Z</time></trkpt><trkpt lat="42.908846" lon="-8.424910"><ele>333.446</ele><time>2021-10-09T09:24:38Z</time></trkpt><trkpt lat="42.908891" lon="-8.425116"><ele>332.635</ele><time>2021-10-09T09:24:52Z</time></trkpt><trkpt lat="42.908994" lon="-8.425545"><ele>332.072</ele><time>2021-10-09T09:25:22Z</time></trkpt><trkpt lat="42.908981" lon="-8.425792"><ele>331.752</ele><time>2021-10-09T09:26:04Z</time></trkpt><trkpt lat="42.908907" lon="-8.426088"><ele>331.163</ele><time>2021-10-09T09:27:36Z</time></trkpt><trkpt lat="42.908863" lon="-8.426361"><ele>330.321</ele><time>2021-10-09T09:27:56Z</time></trkpt><trkpt lat="42.908907" lon="-8.426412"><ele>330.179</ele><time>2021-10-09T09:28:01Z</time></trkpt><trkpt lat="42.908979" lon="-8.426471"><ele>330.347</ele><time>2021-10-09T09:28:10Z</time></trkpt><trkpt lat="42.909007" lon="-8.426369"><ele>330.529</ele><time>2021-10-09T09:28:21Z</time></trkpt><trkpt lat="42.908966" lon="-8.426439"><ele>330.321</ele><time>2021-10-09T09:28:27Z</time></trkpt><trkpt lat="42.908869" lon="-8.426329"><ele>330.408</ele><time>2021-10-09T09:28:39Z</time></trkpt><trkpt lat="42.908765" lon="-8.426208"><ele>331.562</ele><time>2021-10-09T09:28:54Z</time></trkpt><trkpt lat="42.908610" lon="-8.426235"><ele>332.691</ele><time>2021-10-09T09:29:09Z</time></trkpt><trkpt lat="42.908484" lon="-8.426307"><ele>335.220</ele><time>2021-10-09T09:29:22Z</time></trkpt><trkpt lat="42.908423" lon="-8.426465"><ele>336.077</ele><time>2021-10-09T09:29:36Z</time></trkpt><trkpt lat="42.908368" lon="-8.426661"><ele>337.157</ele><time>2021-10-09T09:29:58Z</time></trkpt><trkpt lat="42.908326" lon="-8.426729"><ele>339.178</ele><time>2021-10-09T09:30:05Z</time></trkpt><trkpt lat="42.908156" lon="-8.426999"><ele>345.196</ele><time>2021-10-09T09:31:06Z</time></trkpt><trkpt lat="42.907960" lon="-8.427235"><ele>348.434</ele><time>2021-10-09T09:32:51Z</time></trkpt><trkpt lat="42.907820" lon="-8.427334"><ele>349.314</ele><time>2021-10-09T09:33:16Z</time></trkpt><trkpt lat="42.907698" lon="-8.427436"><ele>350.254</ele><time>2021-10-09T09:33:35Z</time></trkpt><trkpt lat="42.907492" lon="-8.427600"><ele>350.709</ele><time>2021-10-09T09:34:10Z</time></trkpt><trkpt lat="42.907296" lon="-8.427780"><ele>351.508</ele><time>2021-10-09T09:34:34Z</time></trkpt><trkpt lat="42.907188" lon="-8.427882"><ele>351.679</ele><time>2021-10-09T09:34:48Z</time></trkpt><trkpt lat="42.907082" lon="-8.428043"><ele>351.078</ele><time>2021-10-09T09:35:03Z</time></trkpt><trkpt lat="42.906948" lon="-8.428359"><ele>349.047</ele><time>2021-10-09T09:35:27Z</time></trkpt><trkpt lat="42.906875" lon="-8.428563"><ele>348.634</ele><time>2021-10-09T09:35:43Z</time></trkpt><trkpt lat="42.906647" lon="-8.429110"><ele>347.144</ele><time>2021-10-09T09:36:28Z</time></trkpt><trkpt lat="42.906508" lon="-8.429445"><ele>346.475</ele><time>2021-10-09T09:36:56Z</time></trkpt><trkpt lat="42.906329" lon="-8.429730"><ele>344.893</ele><time>2021-10-09T09:38:01Z</time></trkpt><trkpt lat="42.906138" lon="-8.429952"><ele>343.331</ele><time>2021-10-09T09:39:42Z</time></trkpt><trkpt lat="42.905922" lon="-8.430086"><ele>342.824</ele><time>2021-10-09T09:40:06Z</time></trkpt><trkpt lat="42.905714" lon="-8.430333"><ele>341.504</ele><time>2021-10-09T09:40:35Z</time></trkpt><trkpt lat="42.905455" lon="-8.430853"><ele>340.314</ele><time>2021-10-09T09:41:21Z</time></trkpt><trkpt lat="42.905421" lon="-8.430990"><ele>340.208</ele><time>2021-10-09T09:41:31Z</time></trkpt><trkpt lat="42.905400" lon="-8.431283"><ele>339.850</ele><time>2021-10-09T09:41:51Z</time></trkpt><trkpt lat="42.905396" lon="-8.431513"><ele>339.579</ele><time>2021-10-09T09:42:31Z</time></trkpt><trkpt lat="42.905325" lon="-8.431773"><ele>339.998</ele><time>2021-10-09T09:43:52Z</time></trkpt><trkpt lat="42.905227" lon="-8.432031"><ele>339.775</ele><time>2021-10-09T09:44:23Z</time></trkpt><trkpt lat="42.905146" lon="-8.432205"><ele>339.155</ele><time>2021-10-09T09:44:38Z</time></trkpt><trkpt lat="42.904977" lon="-8.432543"><ele>335.856</ele><time>2021-10-09T09:45:48Z</time></trkpt><trkpt lat="42.904785" lon="-8.432763"><ele>337.174</ele><time>2021-10-09T09:47:29Z</time></trkpt><trkpt lat="42.904636" lon="-8.432956"><ele>338.132</ele><time>2021-10-09T09:47:47Z</time></trkpt><trkpt lat="42.904541" lon="-8.433182"><ele>338.534</ele><time>2021-10-09T09:48:05Z</time></trkpt><trkpt lat="42.904478" lon="-8.433375"><ele>338.255</ele><time>2021-10-09T09:48:19Z</time></trkpt><trkpt lat="42.904364" lon="-8.433729"><ele>335.010</ele><time>2021-10-09T09:48:45Z</time></trkpt><trkpt lat="42.904286" lon="-8.434056"><ele>331.908</ele><time>2021-10-09T09:49:09Z</time></trkpt><trkpt lat="42.904215" lon="-8.434335"><ele>329.361</ele><time>2021-10-09T09:49:29Z</time></trkpt><trkpt lat="42.904182" lon="-8.434512"><ele>328.260</ele><time>2021-10-09T09:49:41Z</time></trkpt><trkpt lat="42.904154" lon="-8.434654"><ele>327.999</ele><time>2021-10-09T09:49:51Z</time></trkpt><trkpt lat="42.904172" lon="-8.434973"><ele>328.096</ele><time>2021-10-09T09:50:13Z</time></trkpt><trkpt lat="42.904201" lon="-8.435113"><ele>328.266</ele><time>2021-10-09T09:50:38Z</time></trkpt><trkpt lat="42.904087" lon="-8.435239"><ele>327.427</ele><time>2021-10-09T09:50:52Z</time></trkpt><trkpt lat="42.903889" lon="-8.435526"><ele>326.055</ele><time>2021-10-09T09:52:48Z</time></trkpt><trkpt lat="42.903694" lon="-8.435829"><ele>325.453</ele><time>2021-10-09T09:53:14Z</time></trkpt><trkpt lat="42.903508" lon="-8.436086"><ele>323.256</ele><time>2021-10-09T09:53:38Z</time></trkpt><trkpt lat="42.903427" lon="-8.436207"><ele>322.759</ele><time>2021-10-09T09:53:48Z</time></trkpt><trkpt lat="42.903138" lon="-8.436626"><ele>321.014</ele><time>2021-10-09T09:54:26Z</time></trkpt><trkpt lat="42.902795" lon="-8.437122"><ele>318.408</ele><time>2021-10-09T09:55:10Z</time></trkpt><trkpt lat="42.902561" lon="-8.437470"><ele>317.143</ele><time>2021-10-09T09:55:41Z</time></trkpt><trkpt lat="42.902284" lon="-8.437881"><ele>317.822</ele><time>2021-10-09T09:56:18Z</time></trkpt><trkpt lat="42.902180" lon="-8.438101"><ele>318.011</ele><time>2021-10-09T09:57:03Z</time></trkpt><trkpt lat="42.902070" lon="-8.438313"><ele>317.548</ele><time>2021-10-09T09:58:19Z</time></trkpt><trkpt lat="42.901965" lon="-8.438460"><ele>316.618</ele><time>2021-10-09T09:58:55Z</time></trkpt><trkpt lat="42.901971" lon="-8.438637"><ele>316.179</ele><time>2021-10-09T09:59:47Z</time></trkpt><trkpt lat="42.901926" lon="-8.439203"><ele>314.917</ele><time>2021-10-09T10:01:25Z</time></trkpt><trkpt lat="42.901881" lon="-8.439716"><ele>314.025</ele><time>2021-10-09T10:03:56Z</time></trkpt><trkpt lat="42.901783" lon="-8.440410"><ele>313.759</ele><time>2021-10-09T10:04:43Z</time></trkpt><trkpt lat="42.901748" lon="-8.440672"><ele>312.903</ele><time>2021-10-09T10:05:02Z</time></trkpt><trkpt lat="42.901694" lon="-8.441260"><ele>311.923</ele><time>2021-10-09T10:05:41Z</time></trkpt><trkpt lat="42.901567" lon="-8.442339"><ele>307.908</ele><time>2021-10-09T10:06:59Z</time></trkpt><trkpt lat="42.901498" lon="-8.442647"><ele>306.573</ele><time>2021-10-09T10:07:20Z</time></trkpt><trkpt lat="42.901317" lon="-8.442974"><ele>304.172</ele><time>2021-10-09T10:07:47Z</time></trkpt><trkpt lat="42.901138" lon="-8.443342"><ele>301.181</ele><time>2021-10-09T10:08:16Z</time></trkpt><trkpt lat="42.900859" lon="-8.444275"><ele>302.388</ele><time>2021-10-09T10:09:25Z</time></trkpt><trkpt lat="42.900724" lon="-8.444777"><ele>303.278</ele><time>2021-10-09T10:10:02Z</time></trkpt><trkpt lat="42.900759" lon="-8.444916"><ele>302.679</ele><time>2021-10-09T10:10:27Z</time></trkpt><trkpt lat="42.900720" lon="-8.445056"><ele>302.387</ele><time>2021-10-09T10:11:11Z</time></trkpt><trkpt lat="42.900606" lon="-8.445718"><ele>301.135</ele><time>2021-10-09T10:13:08Z</time></trkpt><trkpt lat="42.900468" lon="-8.446265"><ele>300.552</ele><time>2021-10-09T10:15:58Z</time></trkpt><trkpt lat="42.900417" lon="-8.446499"><ele>299.953</ele><time>2021-10-09T10:16:14Z</time></trkpt><trkpt lat="42.900370" lon="-8.446676"><ele>299.008</ele><time>2021-10-09T10:16:26Z</time></trkpt><trkpt lat="42.900286" lon="-8.446807"><ele>298.508</ele><time>2021-10-09T10:16:38Z</time></trkpt><trkpt lat="42.900177" lon="-8.446888"><ele>298.343</ele><time>2021-10-09T10:17:07Z</time></trkpt><trkpt lat="42.900095" lon="-8.446888"><ele>298.352</ele><time>2021-10-09T10:17:40Z</time></trkpt><trkpt lat="42.899887" lon="-8.446861"><ele>298.851</ele><time>2021-10-09T10:17:59Z</time></trkpt><trkpt lat="42.899810" lon="-8.446807"><ele>299.038</ele><time>2021-10-09T10:18:07Z</time></trkpt><trkpt lat="42.899826" lon="-8.446705"><ele>299.358</ele><time>2021-10-09T10:18:25Z</time></trkpt><trkpt lat="42.899814" lon="-8.446628"><ele>299.679</ele><time>2021-10-09T10:18:48Z</time></trkpt><trkpt lat="42.899779" lon="-8.446557"><ele>300.057</ele><time>2021-10-09T10:18:58Z</time></trkpt><trkpt lat="42.899661" lon="-8.446555"><ele>299.435</ele><time>2021-10-09T10:19:11Z</time></trkpt><trkpt lat="42.899570" lon="-8.446491"><ele>299.066</ele><time>2021-10-09T10:19:35Z</time></trkpt><trkpt lat="42.899527" lon="-8.446392"><ele>298.929</ele><time>2021-10-09T10:20:09Z</time></trkpt><trkpt lat="42.899452" lon="-8.446096"><ele>299.221</ele><time>2021-10-09T10:21:03Z</time></trkpt><trkpt lat="42.899415" lon="-8.445885"><ele>300.308</ele><time>2021-10-09T10:21:18Z</time></trkpt><trkpt lat="42.899409" lon="-8.445694"><ele>301.144</ele><time>2021-10-09T10:22:14Z</time></trkpt><trkpt lat="42.899405" lon="-8.445415"><ele>301.653</ele><time>2021-10-09T10:22:36Z</time></trkpt><trkpt lat="42.899292" lon="-8.445000"><ele>301.942</ele><time>2021-10-09T10:23:05Z</time></trkpt><trkpt lat="42.899242" lon="-8.444825"><ele>301.479</ele><time>2021-10-09T10:23:37Z</time></trkpt><trkpt lat="42.899124" lon="-8.444739"><ele>300.859</ele><time>2021-10-09T10:24:31Z</time></trkpt><trkpt lat="42.899058" lon="-8.444702"><ele>300.620</ele><time>2021-10-09T10:24:37Z</time></trkpt><trkpt lat="42.898796" lon="-8.444616"><ele>299.318</ele><time>2021-10-09T10:25:41Z</time></trkpt><trkpt lat="42.898556" lon="-8.444490"><ele>297.646</ele><time>2021-10-09T10:27:24Z</time></trkpt><trkpt lat="42.898456" lon="-8.444270"><ele>297.249</ele><time>2021-10-09T10:27:41Z</time></trkpt><trkpt lat="42.898391" lon="-8.444206"><ele>297.102</ele><time>2021-10-09T10:28:00Z</time></trkpt><trkpt lat="42.898304" lon="-8.444173"><ele>296.922</ele><time>2021-10-09T10:28:36Z</time></trkpt><trkpt lat="42.898330" lon="-8.444205"><ele>296.908</ele><time>2021-10-09T10:28:39Z</time></trkpt><trkpt lat="42.898344" lon="-8.444353"><ele>296.482</ele><time>2021-10-09T10:29:05Z</time></trkpt><trkpt lat="42.898354" lon="-8.444471"><ele>296.111</ele><time>2021-10-09T10:29:13Z</time></trkpt><trkpt lat="42.898327" lon="-8.444509"><ele>296.070</ele><time>2021-10-09T10:29:17Z</time></trkpt><trkpt lat="42.898272" lon="-8.444493"><ele>295.857</ele><time>2021-10-09T10:29:39Z</time></trkpt><trkpt lat="42.898230" lon="-8.444519"><ele>295.627</ele><time>2021-10-09T10:29:44Z</time></trkpt><trkpt lat="42.898193" lon="-8.444533"><ele>295.528</ele><time>2021-10-09T10:29:48Z</time></trkpt><trkpt lat="42.898146" lon="-8.444568"><ele>295.376</ele><time>2021-10-09T10:30:00Z</time></trkpt><trkpt lat="42.898164" lon="-8.444612"><ele>295.434</ele><time>2021-10-09T10:30:15Z</time></trkpt><trkpt lat="42.898181" lon="-8.444774"><ele>295.475</ele><time>2021-10-09T10:30:26Z</time></trkpt><trkpt lat="42.898177" lon="-8.444871"><ele>295.228</ele><time>2021-10-09T10:30:43Z</time></trkpt><trkpt lat="42.898156" lon="-8.444962"><ele>295.020</ele><time>2021-10-09T10:31:11Z</time></trkpt><trkpt lat="42.898142" lon="-8.445018"><ele>294.908</ele><time>2021-10-09T10:31:15Z</time></trkpt><trkpt lat="42.898134" lon="-8.445065"><ele>294.855</ele><time>2021-10-09T10:31:19Z</time></trkpt><trkpt lat="42.897991" lon="-8.445281"><ele>294.514</ele><time>2021-10-09T10:32:09Z</time></trkpt><trkpt lat="42.897841" lon="-8.445493"><ele>295.743</ele><time>2021-10-09T10:33:35Z</time></trkpt><trkpt lat="42.897535" lon="-8.446233"><ele>302.830</ele><time>2021-10-09T10:34:54Z</time></trkpt><trkpt lat="42.897381" lon="-8.446660"><ele>309.530</ele><time>2021-10-09T10:35:44Z</time></trkpt><trkpt lat="42.897321" lon="-8.446882"><ele>313.061</ele><time>2021-10-09T10:36:06Z</time></trkpt><trkpt lat="42.897222" lon="-8.447263"><ele>317.349</ele><time>2021-10-09T10:36:55Z</time></trkpt><trkpt lat="42.897177" lon="-8.447438"><ele>319.247</ele><time>2021-10-09T10:37:27Z</time></trkpt><trkpt lat="42.897089" lon="-8.447574"><ele>321.535</ele><time>2021-10-09T10:38:21Z</time></trkpt><trkpt lat="42.896953" lon="-8.447593"><ele>323.286</ele><time>2021-10-09T10:38:40Z</time></trkpt><trkpt lat="42.896729" lon="-8.447582"><ele>326.914</ele><time>2021-10-09T10:39:33Z</time></trkpt><trkpt lat="42.896499" lon="-8.447599"><ele>328.608</ele><time>2021-10-09T10:41:05Z</time></trkpt><trkpt lat="42.896083" lon="-8.447545"><ele>327.661</ele><time>2021-10-09T10:41:44Z</time></trkpt><trkpt lat="42.895943" lon="-8.447556"><ele>327.440</ele><time>2021-10-09T10:41:57Z</time></trkpt><trkpt lat="42.895837" lon="-8.447690"><ele>330.199</ele><time>2021-10-09T10:42:32Z</time></trkpt><trkpt lat="42.895680" lon="-8.447789"><ele>331.656</ele><time>2021-10-09T10:43:41Z</time></trkpt><trkpt lat="42.895586" lon="-8.447821"><ele>331.936</ele><time>2021-10-09T10:43:51Z</time></trkpt><trkpt lat="42.895291" lon="-8.447824"><ele>329.897</ele><time>2021-10-09T10:44:20Z</time></trkpt><trkpt lat="42.895196" lon="-8.447821"><ele>328.925</ele><time>2021-10-09T10:44:42Z</time></trkpt><trkpt lat="42.895073" lon="-8.447751"><ele>327.473</ele><time>2021-10-09T10:45:36Z</time></trkpt><trkpt lat="42.894992" lon="-8.447625"><ele>326.554</ele><time>2021-10-09T10:45:53Z</time></trkpt><trkpt lat="42.894886" lon="-8.447421"><ele>326.856</ele><time>2021-10-09T10:46:20Z</time></trkpt><trkpt lat="42.894809" lon="-8.447261"><ele>328.111</ele><time>2021-10-09T10:46:42Z</time></trkpt><trkpt lat="42.894701" lon="-8.447126"><ele>329.608</ele><time>2021-10-09T10:47:00Z</time></trkpt><trkpt lat="42.894587" lon="-8.447113"><ele>331.013</ele><time>2021-10-09T10:47:27Z</time></trkpt><trkpt lat="42.894473" lon="-8.447145"><ele>332.452</ele><time>2021-10-09T10:48:13Z</time></trkpt><trkpt lat="42.894342" lon="-8.447220"><ele>334.891</ele><time>2021-10-09T10:48:31Z</time></trkpt><trkpt lat="42.894199" lon="-8.447423"><ele>337.388</ele><time>2021-10-09T10:49:00Z</time></trkpt><trkpt lat="42.894116" lon="-8.447641"><ele>340.778</ele><time>2021-10-09T10:49:43Z</time></trkpt><trkpt lat="42.893998" lon="-8.447794"><ele>345.419</ele><time>2021-10-09T10:50:48Z</time></trkpt><trkpt lat="42.893381" lon="-8.448140"><ele>349.467</ele><time>2021-10-09T10:52:18Z</time></trkpt><trkpt lat="42.893015" lon="-8.448558"><ele>346.825</ele><time>2021-10-09T10:53:03Z</time></trkpt><trkpt lat="42.892526" lon="-8.449200"><ele>349.565</ele><time>2021-10-09T10:54:06Z</time></trkpt><trkpt lat="42.892477" lon="-8.449329"><ele>349.068</ele><time>2021-10-09T10:54:31Z</time></trkpt><trkpt lat="42.892412" lon="-8.449420"><ele>349.114</ele><time>2021-10-09T10:55:08Z</time></trkpt><trkpt lat="42.892158" lon="-8.449777"><ele>350.408</ele><time>2021-10-09T10:55:41Z</time></trkpt><trkpt lat="42.892123" lon="-8.449846"><ele>350.584</ele><time>2021-10-09T10:55:56Z</time></trkpt><trkpt lat="42.892009" lon="-8.449854"><ele>352.123</ele><time>2021-10-09T10:56:41Z</time></trkpt><trkpt lat="42.891848" lon="-8.449811"><ele>354.062</ele><time>2021-10-09T10:57:20Z</time></trkpt><trkpt lat="42.891724" lon="-8.449731"><ele>355.459</ele><time>2021-10-09T10:58:15Z</time></trkpt><trkpt lat="42.891600" lon="-8.449634"><ele>356.129</ele><time>2021-10-09T10:58:31Z</time></trkpt><trkpt lat="42.891556" lon="-8.449708"><ele>356.070</ele><time>2021-10-09T10:58:38Z</time></trkpt><trkpt lat="42.891506" lon="-8.450128"><ele>355.968</ele><time>2021-10-09T10:59:06Z</time></trkpt><trkpt lat="42.891392" lon="-8.450729"><ele>353.436</ele><time>2021-10-09T10:59:49Z</time></trkpt><trkpt lat="42.891459" lon="-8.451144"><ele>352.443</ele><time>2021-10-09T11:00:19Z</time></trkpt><trkpt lat="42.891424" lon="-8.451407"><ele>351.964</ele><time>2021-10-09T11:00:37Z</time></trkpt><trkpt lat="42.891392" lon="-8.451844"><ele>352.610</ele><time>2021-10-09T11:01:15Z</time></trkpt><trkpt lat="42.891369" lon="-8.452365"><ele>356.108</ele><time>2021-10-09T11:02:06Z</time></trkpt><trkpt lat="42.891353" lon="-8.452558"><ele>357.642</ele><time>2021-10-09T11:02:40Z</time></trkpt><trkpt lat="42.891304" lon="-8.452636"><ele>358.271</ele><time>2021-10-09T11:03:10Z</time></trkpt><trkpt lat="42.890974" lon="-8.453079"><ele>360.720</ele><time>2021-10-09T11:04:02Z</time></trkpt><trkpt lat="42.890930" lon="-8.453401"><ele>363.077</ele><time>2021-10-09T11:04:30Z</time></trkpt><trkpt lat="42.890879" lon="-8.454604"><ele>366.657</ele><time>2021-10-09T11:06:07Z</time></trkpt><trkpt lat="42.890846" lon="-8.454800"><ele>366.898</ele><time>2021-10-09T11:06:42Z</time></trkpt><trkpt lat="42.890726" lon="-8.455012"><ele>366.926</ele><time>2021-10-09T11:08:00Z</time></trkpt><trkpt lat="42.890441" lon="-8.455490"><ele>370.024</ele><time>2021-10-09T11:08:45Z</time></trkpt><trkpt lat="42.890169" lon="-8.456303"><ele>371.381</ele><time>2021-10-09T11:09:51Z</time></trkpt><trkpt lat="42.890158" lon="-8.456450"><ele>372.461</ele><time>2021-10-09T11:10:03Z</time></trkpt><trkpt lat="42.890128" lon="-8.456584"><ele>373.517</ele><time>2021-10-09T11:10:18Z</time></trkpt><trkpt lat="42.890121" lon="-8.457150"><ele>377.908</ele><time>2021-10-09T11:11:00Z</time></trkpt><trkpt lat="42.890142" lon="-8.457611"><ele>379.086</ele><time>2021-10-09T11:11:35Z</time></trkpt><trkpt lat="42.890221" lon="-8.457952"><ele>380.485</ele><time>2021-10-09T11:12:37Z</time></trkpt><trkpt lat="42.890380" lon="-8.458370"><ele>383.564</ele><time>2021-10-09T11:14:55Z</time></trkpt><trkpt lat="42.890388" lon="-8.458620"><ele>384.431</ele><time>2021-10-09T11:15:17Z</time></trkpt><trkpt lat="42.890415" lon="-8.459018"><ele>385.011</ele><time>2021-10-09T11:15:49Z</time></trkpt><trkpt lat="42.890541" lon="-8.459540"><ele>386.022</ele><time>2021-10-09T11:16:31Z</time></trkpt><trkpt lat="42.890581" lon="-8.460073"><ele>385.780</ele><time>2021-10-09T11:17:09Z</time></trkpt><trkpt lat="42.890555" lon="-8.460519"><ele>385.998</ele><time>2021-10-09T11:17:41Z</time></trkpt><trkpt lat="42.890453" lon="-8.461015"><ele>386.577</ele><time>2021-10-09T11:18:17Z</time></trkpt><trkpt lat="42.890390" lon="-8.461492"><ele>387.061</ele><time>2021-10-09T11:18:51Z</time></trkpt><trkpt lat="42.890352" lon="-8.461950"><ele>386.027</ele><time>2021-10-09T11:19:23Z</time></trkpt><trkpt lat="42.890395" lon="-8.462775"><ele>389.108</ele><time>2021-10-09T11:20:22Z</time></trkpt><trkpt lat="42.890402" lon="-8.463351"><ele>388.685</ele><time>2021-10-09T11:21:03Z</time></trkpt><trkpt lat="42.890462" lon="-8.463974"><ele>388.654</ele><time>2021-10-09T11:21:48Z</time></trkpt><trkpt lat="42.890620" lon="-8.465049"><ele>392.183</ele><time>2021-10-09T11:23:07Z</time></trkpt><trkpt lat="42.890708" lon="-8.465650"><ele>391.230</ele><time>2021-10-09T11:23:50Z</time></trkpt><trkpt lat="42.890882" lon="-8.466775"><ele>391.910</ele><time>2021-10-09T11:25:11Z</time></trkpt><trkpt lat="42.890983" lon="-8.467557"><ele>389.851</ele><time>2021-10-09T11:26:10Z</time></trkpt><trkpt lat="42.891064" lon="-8.468144"><ele>388.069</ele><time>2021-10-09T11:26:53Z</time></trkpt><trkpt lat="42.891202" lon="-8.469135"><ele>389.647</ele><time>2021-10-09T11:28:04Z</time></trkpt><trkpt lat="42.891299" lon="-8.469771"><ele>391.694</ele><time>2021-10-09T11:28:51Z</time></trkpt><trkpt lat="42.891457" lon="-8.470893"><ele>387.357</ele><time>2021-10-09T11:30:08Z</time></trkpt><trkpt lat="42.891620" lon="-8.472051"><ele>384.622</ele><time>2021-10-09T11:31:24Z</time></trkpt><trkpt lat="42.891652" lon="-8.472379"><ele>384.008</ele><time>2021-10-09T11:31:46Z</time></trkpt><trkpt lat="42.891724" lon="-8.472873"><ele>383.717</ele><time>2021-10-09T11:32:19Z</time></trkpt><trkpt lat="42.891773" lon="-8.473283"><ele>381.696</ele><time>2021-10-09T11:32:47Z</time></trkpt><trkpt lat="42.891860" lon="-8.474040"><ele>380.555</ele><time>2021-10-09T11:33:39Z</time></trkpt><trkpt lat="42.891915" lon="-8.474533"><ele>382.162</ele><time>2021-10-09T11:34:14Z</time></trkpt><trkpt lat="42.892080" lon="-8.475904"><ele>380.072</ele><time>2021-10-09T11:35:50Z</time></trkpt><trkpt lat="42.892137" lon="-8.476180"><ele>379.823</ele><time>2021-10-09T11:36:10Z</time></trkpt><trkpt lat="42.892247" lon="-8.476411"><ele>379.021</ele><time>2021-10-09T11:36:58Z</time></trkpt><trkpt lat="42.892286" lon="-8.476478"><ele>378.969</ele><time>2021-10-09T11:37:23Z</time></trkpt><trkpt lat="42.892280" lon="-8.476553"><ele>378.943</ele><time>2021-10-09T11:37:36Z</time></trkpt><trkpt lat="42.892265" lon="-8.476617"><ele>378.964</ele><time>2021-10-09T11:37:56Z</time></trkpt><trkpt lat="42.892215" lon="-8.476582"><ele>379.010</ele><time>2021-10-09T11:38:02Z</time></trkpt><trkpt lat="42.892021" lon="-8.476553"><ele>379.708</ele><time>2021-10-09T11:38:48Z</time></trkpt><trkpt lat="42.891789" lon="-8.476483"><ele>380.492</ele><time>2021-10-09T11:40:23Z</time></trkpt><trkpt lat="42.891479" lon="-8.476411"><ele>381.011</ele><time>2021-10-09T11:40:53Z</time></trkpt><trkpt lat="42.891046" lon="-8.476287"><ele>381.970</ele><time>2021-10-09T11:42:37Z</time></trkpt><trkpt lat="42.890618" lon="-8.476177"><ele>381.877</ele><time>2021-10-09T11:45:32Z</time></trkpt><trkpt lat="42.890539" lon="-8.476202"><ele>381.777</ele><time>2021-10-09T11:45:39Z</time></trkpt><trkpt lat="42.890494" lon="-8.476459"><ele>380.678</ele><time>2021-10-09T11:45:56Z</time></trkpt><trkpt lat="42.890520" lon="-8.477597"><ele>378.236</ele><time>2021-10-09T11:47:10Z</time></trkpt><trkpt lat="42.890555" lon="-8.478175"><ele>374.694</ele><time>2021-10-09T11:47:48Z</time></trkpt><trkpt lat="42.890604" lon="-8.480037"><ele>375.141</ele><time>2021-10-09T11:49:58Z</time></trkpt><trkpt lat="42.890614" lon="-8.480520"><ele>376.981</ele><time>2021-10-09T11:50:43Z</time></trkpt><trkpt lat="42.890661" lon="-8.482333"><ele>383.609</ele><time>2021-10-09T11:53:02Z</time></trkpt><trkpt lat="42.890720" lon="-8.484162"><ele>378.208</ele><time>2021-10-09T11:55:02Z</time></trkpt><trkpt lat="42.890712" lon="-8.484745"><ele>377.582</ele><time>2021-10-09T11:55:41Z</time></trkpt><trkpt lat="42.890750" lon="-8.485905"><ele>373.481</ele><time>2021-10-09T11:56:57Z</time></trkpt><trkpt lat="42.890620" lon="-8.486035"><ele>372.560</ele><time>2021-10-09T11:57:12Z</time></trkpt><trkpt lat="42.890588" lon="-8.486281"><ele>371.547</ele><time>2021-10-09T11:57:29Z</time></trkpt><trkpt lat="42.890651" lon="-8.486721"><ele>369.317</ele><time>2021-10-09T11:58:00Z</time></trkpt><trkpt lat="42.890795" lon="-8.487351"><ele>364.198</ele><time>2021-10-09T11:58:46Z</time></trkpt><trkpt lat="42.891284" lon="-8.487492"><ele>362.496</ele><time>2021-10-09T11:59:33Z</time></trkpt><trkpt lat="42.891531" lon="-8.487750"><ele>361.094</ele><time>2021-10-09T12:00:02Z</time></trkpt><trkpt lat="42.891471" lon="-8.488062"><ele>361.431</ele><time>2021-10-09T12:00:25Z</time></trkpt><trkpt lat="42.891465" lon="-8.488145"><ele>361.261</ele><time>2021-10-09T12:00:30Z</time></trkpt><trkpt lat="42.891447" lon="-8.488247"><ele>361.007</ele><time>2021-10-09T12:00:38Z</time></trkpt><trkpt lat="42.891427" lon="-8.488392"><ele>360.908</ele><time>2021-10-09T12:00:47Z</time></trkpt><trkpt lat="42.891372" lon="-8.488854"><ele>360.191</ele><time>2021-10-09T12:01:19Z</time></trkpt><trkpt lat="42.891315" lon="-8.489122"><ele>360.020</ele><time>2021-10-09T12:02:08Z</time></trkpt><trkpt lat="42.891221" lon="-8.489363"><ele>360.729</ele><time>2021-10-09T12:03:28Z</time></trkpt><trkpt lat="42.891082" lon="-8.489744"><ele>362.186</ele><time>2021-10-09T12:03:58Z</time></trkpt><trkpt lat="42.891009" lon="-8.490098"><ele>363.476</ele><time>2021-10-09T12:04:26Z</time></trkpt><trkpt lat="42.890930" lon="-8.490503"><ele>364.517</ele><time>2021-10-09T12:04:59Z</time></trkpt><trkpt lat="42.890911" lon="-8.490624"><ele>365.075</ele><time>2021-10-09T12:05:20Z</time></trkpt><trkpt lat="42.890864" lon="-8.490873"><ele>365.983</ele><time>2021-10-09T12:06:36Z</time></trkpt><trkpt lat="42.890765" lon="-8.491327"><ele>366.251</ele><time>2021-10-09T12:07:11Z</time></trkpt><trkpt lat="42.890518" lon="-8.491925"><ele>367.901</ele><time>2021-10-09T12:09:10Z</time></trkpt><trkpt lat="42.890262" lon="-8.492534"><ele>369.911</ele><time>2021-10-09T12:12:36Z</time></trkpt><trkpt lat="42.890074" lon="-8.492939"><ele>369.608</ele><time>2021-10-09T12:13:11Z</time></trkpt><trkpt lat="42.889987" lon="-8.493250"><ele>370.193</ele><time>2021-10-09T12:13:38Z</time></trkpt><trkpt lat="42.889923" lon="-8.493447"><ele>370.642</ele><time>2021-10-09T12:13:56Z</time></trkpt><trkpt lat="42.889899" lon="-8.493539"><ele>370.791</ele><time>2021-10-09T12:14:03Z</time></trkpt><trkpt lat="42.889765" lon="-8.493837"><ele>372.518</ele><time>2021-10-09T12:15:03Z</time></trkpt><trkpt lat="42.889720" lon="-8.493920"><ele>372.918</ele><time>2021-10-09T12:15:10Z</time></trkpt><trkpt lat="42.889688" lon="-8.493945"><ele>373.119</ele><time>2021-10-09T12:15:25Z</time></trkpt><trkpt lat="42.889592" lon="-8.494078"><ele>373.467</ele><time>2021-10-09T12:15:38Z</time></trkpt><trkpt lat="42.889527" lon="-8.494307"><ele>373.455</ele><time>2021-10-09T12:15:58Z</time></trkpt><trkpt lat="42.889543" lon="-8.494158"><ele>373.375</ele><time>2021-10-09T12:16:10Z</time></trkpt><trkpt lat="42.889469" lon="-8.494198"><ele>373.828</ele><time>2021-10-09T12:16:22Z</time></trkpt><trkpt lat="42.889337" lon="-8.494280"><ele>373.820</ele><time>2021-10-09T12:16:39Z</time></trkpt><trkpt lat="42.889252" lon="-8.494293"><ele>373.708</ele><time>2021-10-09T12:16:59Z</time></trkpt><trkpt lat="42.889177" lon="-8.494253"><ele>373.765</ele><time>2021-10-09T12:17:31Z</time></trkpt><trkpt lat="42.889096" lon="-8.494144"><ele>373.464</ele><time>2021-10-09T12:17:41Z</time></trkpt><trkpt lat="42.888965" lon="-8.493936"><ele>374.153</ele><time>2021-10-09T12:17:59Z</time></trkpt><trkpt lat="42.888971" lon="-8.493820"><ele>374.950</ele><time>2021-10-09T12:18:08Z</time></trkpt><trkpt lat="42.889260" lon="-8.493695"><ele>377.240</ele><time>2021-10-09T12:18:50Z</time></trkpt><trkpt lat="42.888935" lon="-8.493868"><ele>374.441</ele><time>2021-10-09T12:19:21Z</time></trkpt><trkpt lat="42.888810" lon="-8.493808"><ele>373.279</ele><time>2021-10-09T12:19:34Z</time></trkpt><trkpt lat="42.888733" lon="-8.493773"><ele>372.237</ele><time>2021-10-09T12:19:46Z</time></trkpt><trkpt lat="42.888651" lon="-8.493773"><ele>371.038</ele><time>2021-10-09T12:19:54Z</time></trkpt><trkpt lat="42.888480" lon="-8.493926"><ele>369.570</ele><time>2021-10-09T12:20:18Z</time></trkpt><trkpt lat="42.888053" lon="-8.493915"><ele>366.017</ele><time>2021-10-09T12:20:56Z</time></trkpt><trkpt lat="42.887926" lon="-8.493942"><ele>363.808</ele><time>2021-10-09T12:21:08Z</time></trkpt><trkpt lat="42.887664" lon="-8.493939"><ele>360.151</ele><time>2021-10-09T12:21:33Z</time></trkpt><trkpt lat="42.887521" lon="-8.493938"><ele>358.790</ele><time>2021-10-09T12:21:46Z</time></trkpt><trkpt lat="42.887207" lon="-8.494085"><ele>357.319</ele><time>2021-10-09T12:22:17Z</time></trkpt><trkpt lat="42.886884" lon="-8.494407"><ele>355.676</ele><time>2021-10-09T12:22:52Z</time></trkpt><trkpt lat="42.886627" lon="-8.494463"><ele>353.986</ele><time>2021-10-09T12:23:16Z</time></trkpt><trkpt lat="42.886491" lon="-8.494523"><ele>353.737</ele><time>2021-10-09T12:23:29Z</time></trkpt><trkpt lat="42.886405" lon="-8.494552"><ele>353.655</ele><time>2021-10-09T12:23:39Z</time></trkpt><trkpt lat="42.886396" lon="-8.494622"><ele>353.473</ele><time>2021-10-09T12:23:44Z</time></trkpt><trkpt lat="42.886395" lon="-8.494635"><ele>353.318</ele><time>2021-10-09T12:23:45Z</time></trkpt><trkpt lat="42.886180" lon="-8.494526"><ele>354.798</ele><time>2021-10-09T12:24:08Z</time></trkpt><trkpt lat="42.885901" lon="-8.494529"><ele>354.817</ele><time>2021-10-09T12:24:39Z</time></trkpt><trkpt lat="42.885761" lon="-8.494564"><ele>354.208</ele><time>2021-10-09T12:24:54Z</time></trkpt><trkpt lat="42.885272" lon="-8.495017"><ele>352.929</ele><time>2021-10-09T12:25:51Z</time></trkpt><trkpt lat="42.885044" lon="-8.495141"><ele>352.418</ele><time>2021-10-09T12:26:17Z</time></trkpt><trkpt lat="42.884835" lon="-8.495225"><ele>352.647</ele><time>2021-10-09T12:26:39Z</time></trkpt><trkpt lat="42.884759" lon="-8.495305"><ele>352.354</ele><time>2021-10-09T12:26:49Z</time></trkpt><trkpt lat="42.884700" lon="-8.495336"><ele>352.684</ele><time>2021-10-09T12:26:55Z</time></trkpt><trkpt lat="42.884705" lon="-8.495410"><ele>351.815</ele><time>2021-10-09T12:27:01Z</time></trkpt><trkpt lat="42.884724" lon="-8.495400"><ele>351.753</ele><time>2021-10-09T12:27:07Z</time></trkpt><trkpt lat="42.884719" lon="-8.495391"><ele>351.841</ele><time>2021-10-09T12:27:09Z</time></trkpt><trkpt lat="42.884732" lon="-8.495426"><ele>351.341</ele><time>2021-10-09T12:27:11Z</time></trkpt><trkpt lat="42.884750" lon="-8.495291"><ele>352.681</ele><time>2021-10-09T12:27:21Z</time></trkpt><trkpt lat="42.884941" lon="-8.495167"><ele>352.509</ele><time>2021-10-09T12:27:42Z</time></trkpt><trkpt lat="42.885119" lon="-8.495295"><ele>350.308</ele><time>2021-10-09T12:28:00Z</time></trkpt><trkpt lat="42.885488" lon="-8.495368"><ele>351.122</ele><time>2021-10-09T12:28:36Z</time></trkpt><trkpt lat="42.885692" lon="-8.495464"><ele>350.711</ele><time>2021-10-09T12:28:58Z</time></trkpt><trkpt lat="42.885917" lon="-8.495578"><ele>349.870</ele><time>2021-10-09T12:29:21Z</time></trkpt><trkpt lat="42.886290" lon="-8.495823"><ele>348.417</ele><time>2021-10-09T12:29:58Z</time></trkpt><trkpt lat="42.886565" lon="-8.496709"><ele>342.387</ele><time>2021-10-09T12:31:01Z</time></trkpt><trkpt lat="42.886833" lon="-8.497498"><ele>339.288</ele><time>2021-10-09T12:31:58Z</time></trkpt><trkpt lat="42.886844" lon="-8.497664"><ele>338.736</ele><time>2021-10-09T12:32:09Z</time></trkpt><trkpt lat="42.887030" lon="-8.497811"><ele>338.854</ele><time>2021-10-09T12:32:28Z</time></trkpt><trkpt lat="42.887198" lon="-8.497968"><ele>338.386</ele><time>2021-10-09T12:33:16Z</time></trkpt><trkpt lat="42.887534" lon="-8.498150"><ele>337.460</ele><time>2021-10-09T12:33:51Z</time></trkpt><trkpt lat="42.888059" lon="-8.498536"><ele>341.326</ele><time>2021-10-09T12:34:48Z</time></trkpt><trkpt lat="42.888148" lon="-8.498625"><ele>342.608</ele><time>2021-10-09T12:34:58Z</time></trkpt><trkpt lat="42.888012" lon="-8.499218"><ele>338.056</ele><time>2021-10-09T12:35:41Z</time></trkpt><trkpt lat="42.887841" lon="-8.499856"><ele>332.165</ele><time>2021-10-09T12:36:29Z</time></trkpt><trkpt lat="42.887731" lon="-8.499979"><ele>330.674</ele><time>2021-10-09T12:36:42Z</time></trkpt><trkpt lat="42.887700" lon="-8.500320"><ele>327.641</ele><time>2021-10-09T12:37:06Z</time></trkpt><trkpt lat="42.887705" lon="-8.500376"><ele>326.971</ele><time>2021-10-09T12:37:23Z</time></trkpt><trkpt lat="42.887723" lon="-8.500580"><ele>324.332</ele><time>2021-10-09T12:37:38Z</time></trkpt><trkpt lat="42.887757" lon="-8.500808"><ele>322.140</ele><time>2021-10-09T12:37:54Z</time></trkpt><trkpt lat="42.887874" lon="-8.501632"><ele>313.198</ele><time>2021-10-09T12:39:14Z</time></trkpt><trkpt lat="42.887878" lon="-8.501768"><ele>311.653</ele><time>2021-10-09T12:39:38Z</time></trkpt><trkpt lat="42.887810" lon="-8.501980"><ele>310.304</ele><time>2021-10-09T12:40:46Z</time></trkpt><trkpt lat="42.887529" lon="-8.502997"><ele>306.014</ele><time>2021-10-09T12:41:57Z</time></trkpt><trkpt lat="42.887494" lon="-8.503426"><ele>304.708</ele><time>2021-10-09T12:42:31Z</time></trkpt><trkpt lat="42.887330" lon="-8.504174"><ele>299.323</ele><time>2021-10-09T12:43:26Z</time></trkpt><trkpt lat="42.887288" lon="-8.504404"><ele>296.692</ele><time>2021-10-09T12:43:45Z</time></trkpt><trkpt lat="42.887051" lon="-8.504579"><ele>295.621</ele><time>2021-10-09T12:44:11Z</time></trkpt><trkpt lat="42.886810" lon="-8.504527"><ele>298.648</ele><time>2021-10-09T12:44:36Z</time></trkpt><trkpt lat="42.886835" lon="-8.504626"><ele>296.838</ele><time>2021-10-09T12:44:42Z</time></trkpt><trkpt lat="42.886974" lon="-8.504831"><ele>291.769</ele><time>2021-10-09T12:45:01Z</time></trkpt><trkpt lat="42.886815" lon="-8.505180"><ele>288.977</ele><time>2021-10-09T12:45:28Z</time></trkpt><trkpt lat="42.886717" lon="-8.505633"><ele>284.585</ele><time>2021-10-09T12:45:58Z</time></trkpt><trkpt lat="42.886538" lon="-8.507476"><ele>272.295</ele><time>2021-10-09T12:48:03Z</time></trkpt><trkpt lat="42.886515" lon="-8.508300"><ele>271.849</ele><time>2021-10-09T12:48:56Z</time></trkpt><trkpt lat="42.886481" lon="-8.509450"><ele>275.723</ele><time>2021-10-09T12:50:16Z</time></trkpt><trkpt lat="42.886477" lon="-8.509643"><ele>275.908</ele><time>2021-10-09T12:50:50Z</time></trkpt><trkpt lat="42.886475" lon="-8.509831"><ele>276.217</ele><time>2021-10-09T12:51:45Z</time></trkpt><trkpt lat="42.886446" lon="-8.510000"><ele>276.636</ele><time>2021-10-09T12:52:15Z</time></trkpt><trkpt lat="42.886424" lon="-8.510132"><ele>275.945</ele><time>2021-10-09T12:52:54Z</time></trkpt><trkpt lat="42.886316" lon="-8.510306"><ele>275.392</ele><time>2021-10-09T12:53:34Z</time></trkpt><trkpt lat="42.886174" lon="-8.510464"><ele>275.232</ele><time>2021-10-09T12:54:47Z</time></trkpt><trkpt lat="42.886181" lon="-8.510963"><ele>274.713</ele><time>2021-10-09T12:55:21Z</time></trkpt><trkpt lat="42.886263" lon="-8.511046"><ele>275.091</ele><time>2021-10-09T12:55:45Z</time></trkpt><trkpt lat="42.886300" lon="-8.511094"><ele>275.269</ele><time>2021-10-09T12:55:50Z</time></trkpt><trkpt lat="42.886347" lon="-8.511167"><ele>275.516</ele><time>2021-10-09T12:56:18Z</time></trkpt><trkpt lat="42.886404" lon="-8.511376"><ele>276.976</ele><time>2021-10-09T12:56:57Z</time></trkpt><trkpt lat="42.886412" lon="-8.511658"><ele>278.013</ele><time>2021-10-09T12:58:20Z</time></trkpt><trkpt lat="42.886406" lon="-8.511931"><ele>278.108</ele><time>2021-10-09T12:58:39Z</time></trkpt><trkpt lat="42.886404" lon="-8.512116"><ele>278.039</ele><time>2021-10-09T12:58:53Z</time></trkpt><trkpt lat="42.886401" lon="-8.512516"><ele>277.928</ele><time>2021-10-09T12:59:22Z</time></trkpt><trkpt lat="42.886387" lon="-8.512889"><ele>277.097</ele><time>2021-10-09T12:59:49Z</time></trkpt><trkpt lat="42.886401" lon="-8.513331"><ele>278.064</ele><time>2021-10-09T13:00:22Z</time></trkpt><trkpt lat="42.886381" lon="-8.513801"><ele>280.054</ele><time>2021-10-09T13:00:57Z</time></trkpt><trkpt lat="42.886289" lon="-8.513981"><ele>280.355</ele><time>2021-10-09T13:01:13Z</time></trkpt><trkpt lat="42.886305" lon="-8.514417"><ele>282.553</ele><time>2021-10-09T13:01:46Z</time></trkpt><trkpt lat="42.886328" lon="-8.514430"><ele>282.781</ele><time>2021-10-09T13:01:49Z</time></trkpt><trkpt lat="42.886334" lon="-8.514793"><ele>283.417</ele><time>2021-10-09T13:02:17Z</time></trkpt><trkpt lat="42.886272" lon="-8.514948"><ele>282.787</ele><time>2021-10-09T13:02:29Z</time></trkpt><trkpt lat="42.886345" lon="-8.515278"><ele>283.015</ele><time>2021-10-09T13:02:56Z</time></trkpt><trkpt lat="42.886333" lon="-8.515741"><ele>284.908</ele><time>2021-10-09T13:03:30Z</time></trkpt><trkpt lat="42.886293" lon="-8.516060"><ele>286.749</ele><time>2021-10-09T13:03:54Z</time></trkpt><trkpt lat="42.886313" lon="-8.516150"><ele>287.268</ele><time>2021-10-09T13:04:04Z</time></trkpt><trkpt lat="42.886320" lon="-8.516618"><ele>289.657</ele><time>2021-10-09T13:04:39Z</time></trkpt><trkpt lat="42.886226" lon="-8.516958"><ele>289.034</ele><time>2021-10-09T13:05:05Z</time></trkpt><trkpt lat="42.886269" lon="-8.517188"><ele>288.674</ele><time>2021-10-09T13:05:21Z</time></trkpt><trkpt lat="42.886349" lon="-8.517253"><ele>289.015</ele><time>2021-10-09T13:05:43Z</time></trkpt><trkpt lat="42.886418" lon="-8.517387"><ele>289.613</ele><time>2021-10-09T13:06:31Z</time></trkpt><trkpt lat="42.886477" lon="-8.517792"><ele>291.031</ele><time>2021-10-09T13:07:43Z</time></trkpt><trkpt lat="42.886514" lon="-8.518348"><ele>291.264</ele><time>2021-10-09T13:10:27Z</time></trkpt><trkpt lat="42.886565" lon="-8.518496"><ele>291.306</ele><time>2021-10-09T13:10:39Z</time></trkpt><trkpt lat="42.886601" lon="-8.519099"><ele>292.516</ele><time>2021-10-09T13:11:26Z</time></trkpt><trkpt lat="42.886680" lon="-8.519556"><ele>291.308</ele><time>2021-10-09T13:11:58Z</time></trkpt><trkpt lat="42.886689" lon="-8.519716"><ele>291.874</ele><time>2021-10-09T13:12:09Z</time></trkpt><trkpt lat="42.886710" lon="-8.519960"><ele>291.863</ele><time>2021-10-09T13:12:26Z</time></trkpt><trkpt lat="42.886646" lon="-8.520016"><ele>292.182</ele><time>2021-10-09T13:12:33Z</time></trkpt><trkpt lat="42.886682" lon="-8.520215"><ele>291.949</ele><time>2021-10-09T13:12:48Z</time></trkpt><trkpt lat="42.886780" lon="-8.520506"><ele>291.699</ele><time>2021-10-09T13:13:08Z</time></trkpt><trkpt lat="42.886875" lon="-8.520957"><ele>290.830</ele><time>2021-10-09T13:13:40Z</time></trkpt><trkpt lat="42.886916" lon="-8.521085"><ele>290.868</ele><time>2021-10-09T13:13:50Z</time></trkpt><trkpt lat="42.886882" lon="-8.521210"><ele>290.086</ele><time>2021-10-09T13:13:58Z</time></trkpt><trkpt lat="42.886994" lon="-8.521573"><ele>289.391</ele><time>2021-10-09T13:14:24Z</time></trkpt><trkpt lat="42.887053" lon="-8.521863"><ele>288.681</ele><time>2021-10-09T13:14:45Z</time></trkpt><trkpt lat="42.887119" lon="-8.522174"><ele>287.819</ele><time>2021-10-09T13:15:06Z</time></trkpt><trkpt lat="42.887195" lon="-8.522549"><ele>288.408</ele><time>2021-10-09T13:15:33Z</time></trkpt><trkpt lat="42.887214" lon="-8.522800"><ele>287.937</ele><time>2021-10-09T13:15:49Z</time></trkpt><trkpt lat="42.887208" lon="-8.523215"><ele>287.896</ele><time>2021-10-09T13:16:17Z</time></trkpt><trkpt lat="42.887232" lon="-8.523366"><ele>287.855</ele><time>2021-10-09T13:16:28Z</time></trkpt><trkpt lat="42.887236" lon="-8.523500"><ele>286.462</ele><time>2021-10-09T13:16:37Z</time></trkpt><trkpt lat="42.887225" lon="-8.523579"><ele>285.492</ele><time>2021-10-09T13:16:42Z</time></trkpt><trkpt lat="42.887251" lon="-8.523867"><ele>283.793</ele><time>2021-10-09T13:17:03Z</time></trkpt><trkpt lat="42.887216" lon="-8.524323"><ele>281.961</ele><time>2021-10-09T13:17:33Z</time></trkpt><trkpt lat="42.887206" lon="-8.524570"><ele>282.269</ele><time>2021-10-09T13:17:50Z</time></trkpt><trkpt lat="42.887208" lon="-8.524825"><ele>283.187</ele><time>2021-10-09T13:18:07Z</time></trkpt><trkpt lat="42.887160" lon="-8.525155"><ele>283.342</ele><time>2021-10-09T13:18:30Z</time></trkpt><trkpt lat="42.887121" lon="-8.525283"><ele>283.226</ele><time>2021-10-09T13:18:39Z</time></trkpt><trkpt lat="42.887088" lon="-8.525558"><ele>283.108</ele><time>2021-10-09T13:19:00Z</time></trkpt><trkpt lat="42.887063" lon="-8.525635"><ele>282.746</ele><time>2021-10-09T13:19:05Z</time></trkpt><trkpt lat="42.886780" lon="-8.526437"><ele>281.515</ele><time>2021-10-09T13:20:08Z</time></trkpt><trkpt lat="42.886691" lon="-8.526652"><ele>282.374</ele><time>2021-10-09T13:20:25Z</time></trkpt><trkpt lat="42.886457" lon="-8.527207"><ele>280.851</ele><time>2021-10-09T13:21:10Z</time></trkpt><trkpt lat="42.886288" lon="-8.527561"><ele>280.611</ele><time>2021-10-09T13:21:38Z</time></trkpt><trkpt lat="42.886172" lon="-8.527842"><ele>280.152</ele><time>2021-10-09T13:22:00Z</time></trkpt><trkpt lat="42.886096" lon="-8.528679"><ele>280.920</ele><time>2021-10-09T13:22:55Z</time></trkpt><trkpt lat="42.886033" lon="-8.529352"><ele>279.368</ele><time>2021-10-09T13:23:39Z</time></trkpt><trkpt lat="42.885997" lon="-8.529673"><ele>277.938</ele><time>2021-10-09T13:24:01Z</time></trkpt><trkpt lat="42.885860" lon="-8.530208"><ele>274.570</ele><time>2021-10-09T13:24:42Z</time></trkpt><trkpt lat="42.885780" lon="-8.530382"><ele>273.717</ele><time>2021-10-09T13:25:18Z</time></trkpt><trkpt lat="42.885685" lon="-8.530565"><ele>273.408</ele><time>2021-10-09T13:25:33Z</time></trkpt><trkpt lat="42.885473" lon="-8.530861"><ele>273.551</ele><time>2021-10-09T13:27:35Z</time></trkpt><trkpt lat="42.885256" lon="-8.531153"><ele>274.070</ele><time>2021-10-09T13:28:04Z</time></trkpt><trkpt lat="42.885024" lon="-8.531617"><ele>273.029</ele><time>2021-10-09T13:28:42Z</time></trkpt><trkpt lat="42.884998" lon="-8.531795"><ele>273.436</ele><time>2021-10-09T13:28:54Z</time></trkpt><trkpt lat="42.885132" lon="-8.532330"><ele>273.176</ele><time>2021-10-09T13:29:31Z</time></trkpt><trkpt lat="42.885251" lon="-8.532751"><ele>272.037</ele><time>2021-10-09T13:30:00Z</time></trkpt><trkpt lat="42.885233" lon="-8.532891"><ele>271.895</ele><time>2021-10-09T13:30:10Z</time></trkpt><trkpt lat="42.885022" lon="-8.533240"><ele>273.883</ele><time>2021-10-09T13:30:40Z</time></trkpt><trkpt lat="42.884925" lon="-8.533349"><ele>274.687</ele><time>2021-10-09T13:30:52Z</time></trkpt><trkpt lat="42.884849" lon="-8.533439"><ele>276.042</ele><time>2021-10-09T13:31:01Z</time></trkpt><trkpt lat="42.884824" lon="-8.533533"><ele>278.126</ele><time>2021-10-09T13:31:09Z</time></trkpt><trkpt lat="42.884800" lon="-8.533583"><ele>279.108</ele><time>2021-10-09T13:31:14Z</time></trkpt><trkpt lat="42.884729" lon="-8.533683"><ele>280.126</ele><time>2021-10-09T13:31:25Z</time></trkpt><trkpt lat="42.884654" lon="-8.533709"><ele>279.555</ele><time>2021-10-09T13:31:33Z</time></trkpt><trkpt lat="42.884512" lon="-8.533783"><ele>278.924</ele><time>2021-10-09T13:31:52Z</time></trkpt><trkpt lat="42.884388" lon="-8.533756"><ele>277.261</ele><time>2021-10-09T13:32:11Z</time></trkpt><trkpt lat="42.884133" lon="-8.533942"><ele>277.711</ele><time>2021-10-09T13:32:54Z</time></trkpt><trkpt lat="42.883814" lon="-8.534094"><ele>277.932</ele><time>2021-10-09T13:33:27Z</time></trkpt><trkpt lat="42.883457" lon="-8.534143"><ele>275.610</ele><time>2021-10-09T13:34:09Z</time></trkpt><trkpt lat="42.883073" lon="-8.534207"><ele>274.858</ele><time>2021-10-09T13:34:47Z</time></trkpt><trkpt lat="42.882775" lon="-8.534261"><ele>275.787</ele><time>2021-10-09T13:35:17Z</time></trkpt><trkpt lat="42.882482" lon="-8.534363"><ele>277.542</ele><time>2021-10-09T13:35:50Z</time></trkpt><trkpt lat="42.882063" lon="-8.534719"><ele>279.426</ele><time>2021-10-09T13:36:39Z</time></trkpt><trkpt lat="42.881849" lon="-8.535068"><ele>280.208</ele><time>2021-10-09T13:37:14Z</time></trkpt><trkpt lat="42.881764" lon="-8.535468"><ele>280.676</ele><time>2021-10-09T13:37:43Z</time></trkpt><trkpt lat="42.881697" lon="-8.535883"><ele>279.685</ele><time>2021-10-09T13:38:13Z</time></trkpt><trkpt lat="42.881680" lon="-8.535964"><ele>279.614</ele><time>2021-10-09T13:38:27Z</time></trkpt><trkpt lat="42.881664" lon="-8.536119"><ele>280.031</ele><time>2021-10-09T13:38:38Z</time></trkpt><trkpt lat="42.881639" lon="-8.536203"><ele>279.741</ele><time>2021-10-09T13:38:54Z</time></trkpt><trkpt lat="42.881640" lon="-8.536270"><ele>279.782</ele><time>2021-10-09T13:39:13Z</time></trkpt><trkpt lat="42.881539" lon="-8.536626"><ele>278.280</ele><time>2021-10-09T13:39:38Z</time></trkpt><trkpt lat="42.881470" lon="-8.537044"><ele>276.898</ele><time>2021-10-09T13:40:06Z</time></trkpt><trkpt lat="42.881375" lon="-8.537518"><ele>272.744</ele><time>2021-10-09T13:40:38Z</time></trkpt><trkpt lat="42.881294" lon="-8.537921"><ele>271.005</ele><time>2021-10-09T13:41:05Z</time></trkpt><trkpt lat="42.881249" lon="-8.537969"><ele>270.315</ele><time>2021-10-09T13:41:10Z</time></trkpt><trkpt lat="42.881352" lon="-8.538474"><ele>268.208</ele><time>2021-10-09T13:41:44Z</time></trkpt><trkpt lat="42.881471" lon="-8.538748"><ele>266.632</ele><time>2021-10-09T13:42:39Z</time></trkpt><trkpt lat="42.881609" lon="-8.539024"><ele>266.861</ele><time>2021-10-09T13:44:17Z</time></trkpt><trkpt lat="42.881737" lon="-8.539352"><ele>268.250</ele><time>2021-10-09T13:44:41Z</time></trkpt><trkpt lat="42.881831" lon="-8.539566"><ele>268.297</ele><time>2021-10-09T13:44:57Z</time></trkpt><trkpt lat="42.881894" lon="-8.539722"><ele>266.837</ele><time>2021-10-09T13:45:11Z</time></trkpt><trkpt lat="42.881953" lon="-8.539829"><ele>267.118</ele><time>2021-10-09T13:45:21Z</time></trkpt><trkpt lat="42.882004" lon="-8.539955"><ele>267.586</ele><time>2021-10-09T13:45:32Z</time></trkpt><trkpt lat="42.881870" lon="-8.540317"><ele>269.284</ele><time>2021-10-09T13:46:00Z</time></trkpt><trkpt lat="42.881833" lon="-8.540966"><ele>274.034</ele><time>2021-10-09T13:46:55Z</time></trkpt><trkpt lat="42.881770" lon="-8.541141"><ele>275.655</ele><time>2021-10-09T13:47:10Z</time></trkpt><trkpt lat="42.881735" lon="-8.541277"><ele>276.410</ele><time>2021-10-09T13:47:20Z</time></trkpt><trkpt lat="42.881627" lon="-8.541605"><ele>279.108</ele><time>2021-10-09T13:48:22Z</time></trkpt><trkpt lat="42.881488" lon="-8.541821"><ele>279.111</ele><time>2021-10-09T13:49:46Z</time></trkpt><trkpt lat="42.881452" lon="-8.541959"><ele>278.910</ele><time>2021-10-09T13:50:00Z</time></trkpt><trkpt lat="42.881426" lon="-8.542055"><ele>278.949</ele><time>2021-10-09T13:50:09Z</time></trkpt><trkpt lat="42.881383" lon="-8.542297"><ele>278.926</ele><time>2021-10-09T13:50:29Z</time></trkpt><trkpt lat="42.881300" lon="-8.542342"><ele>278.376</ele><time>2021-10-09T13:50:37Z</time></trkpt><trkpt lat="42.881161" lon="-8.542377"><ele>277.587</ele><time>2021-10-09T13:50:50Z</time></trkpt><trkpt lat="42.881175" lon="-8.542581"><ele>278.555</ele><time>2021-10-09T13:51:03Z</time></trkpt><trkpt lat="42.881165" lon="-8.542503"><ele>278.273</ele><time>2021-10-09T13:51:09Z</time></trkpt><trkpt lat="42.881206" lon="-8.542808"><ele>279.396</ele><time>2021-10-09T13:51:29Z</time></trkpt><trkpt lat="42.881250" lon="-8.543070"><ele>278.931</ele><time>2021-10-09T13:51:47Z</time></trkpt><trkpt lat="42.881226" lon="-8.543312"><ele>277.524</ele><time>2021-10-09T13:52:03Z</time></trkpt><trkpt lat="42.881218" lon="-8.543524"><ele>275.208</ele><time>2021-10-09T13:52:18Z</time></trkpt><trkpt lat="42.881240" lon="-8.543753"><ele>273.497</ele><time>2021-10-09T13:52:33Z</time></trkpt><trkpt lat="42.881209" lon="-8.543982"><ele>271.696</ele><time>2021-10-09T13:52:48Z</time></trkpt><trkpt lat="42.881141" lon="-8.544478"><ele>267.915</ele><time>2021-10-09T13:53:23Z</time></trkpt><trkpt lat="42.880976" lon="-8.545011"><ele>264.482</ele><time>2021-10-09T13:55:02Z</time></trkpt><trkpt lat="42.880929" lon="-8.545499"><ele>262.162</ele><time>2021-10-09T13:55:37Z</time></trkpt><trkpt lat="42.880670" lon="-8.545805"><ele>257.463</ele><time>2021-10-09T13:57:54Z</time></trkpt></trkseg></trk></gpx>